{
  "type": "FeatureCollection",
  "features": [
    {
      "type": "Feature",
      "properties": {
        "name": "LF-TRA-6",
        "type": "TRA",
        "upperFL": 999,
        "lowerFL": 195,
        "activationLimits": [
          {
            "time": [
              "0000",
              "2359"
            ],
            "month": [
              1,
              2,
              3,
              4,
              5,
              6,
              7,
              8,
              9,
              10,
              11,
              12
            ],
            "weekday": [
              1,
              2,
              3,
              4,
              5,
              6,
              7
            ]
          }
        ]
      },
      "geometry": {
        "type": "Polygon",
        "coordinates": [
          [
            [
              -1.876389,
              48.803611
            ],
            [
              -1.875278,
              48.065556
            ],
            [
              -2.045278,
              47.732778
            ],
            [
              -3.090556,
              47.821111
            ],
            [
              -3.488611,
              48.063889
            ],
            [
              -3.477778,
              48.293333
            ],
            [
              -2.890556,
              48.633889
            ],
            [
              -1.876389,
              48.803611
            ]
          ]
        ]
      }
    },
    {
      "type": "Feature",
      "properties": {
        "name": "LF-TRA-6C",
        "type": "TRA",
        "upperFL": 275,
        "lowerFL": 195,
        "activationLimits": [
          {
            "time": [
              "0000",
              "2359"
            ],
            "month": [
              1,
              2,
              3,
              4,
              5,
              6,
              7,
              8,
              9,
              10,
              11,
              12
            ],
            "weekday": [
              1,
              2,
              3,
              4,
              5,
              6,
              7
            ]
          }
        ]
      },
      "geometry": {
        "type": "Polygon",
        "coordinates": [
          [
            [
              -2.890556,
              48.633889
            ],
            [
              -3.477778,
              48.293333
            ],
            [
              -3.488611,
              48.063889
            ],
            [
              -4.5,
              48.303889
            ],
            [
              -4.008333,
              48.496667
            ],
            [
              -2.890556,
              48.633889
            ]
          ]
        ]
      }
    },
    {
      "type": "Feature",
      "properties": {
        "name": "LF-TRA-8A",
        "type": "TRA",
        "upperFL": 335,
        "lowerFL": 195,
        "activationLimits": [
          {
            "time": [
              "0000",
              "2359"
            ],
            "month": [
              1,
              2,
              3,
              4,
              5,
              6,
              7,
              8,
              9,
              10,
              11,
              12
            ],
            "weekday": [
              1,
              2,
              3,
              4,
              5,
              6,
              7
            ]
          }
        ]
      },
      "geometry": {
        "type": "Polygon",
        "coordinates": [
          [
            [
              -1.366389,
              48.81
            ],
            [
              0.221667,
              48.726389
            ],
            [
              -1.025,
              48.0175
            ],
            [
              -1.298333,
              47.848056
            ],
            [
              -1.366389,
              48.81
            ]
          ]
        ]
      }
    },
    {
      "type": "Feature",
      "properties": {
        "name": "LF-TRA-8B",
        "type": "TRA",
        "upperFL": 335,
        "lowerFL": 195,
        "activationLimits": [
          {
            "time": [
              "0000",
              "2359"
            ],
            "month": [
              1,
              2,
              3,
              4,
              5,
              6,
              7,
              8,
              9,
              10,
              11,
              12
            ],
            "weekday": [
              1,
              2,
              3,
              4,
              5,
              6,
              7
            ]
          }
        ]
      },
      "geometry": {
        "type": "Polygon",
        "coordinates": [
          [
            [
              -1.367222,
              48.82
            ],
            [
              -0.264444,
              48.846111
            ],
            [
              0.266944,
              48.751667
            ],
            [
              -1.025,
              48.0175
            ],
            [
              -1.298889,
              47.8425
            ],
            [
              -1.367222,
              48.82
            ]
          ]
        ]
      }
    },
    {
      "type": "Feature",
      "properties": {
        "name": "LF-TRA-9A",
        "type": "TRA",
        "upperFL": 335,
        "lowerFL": 195,
        "activationLimits": [
          {
            "time": [
              "0000",
              "2359"
            ],
            "month": [
              1,
              2,
              3,
              4,
              5,
              6,
              7,
              8,
              9,
              10,
              11,
              12
            ],
            "weekday": [
              1,
              2,
              3,
              4,
              5,
              6,
              7
            ]
          }
        ]
      },
      "geometry": {
        "type": "Polygon",
        "coordinates": [
          [
            [
              -0.816111,
              47.451667
            ],
            [
              0.000278,
              47.405833
            ],
            [
              0.275,
              47.298333
            ],
            [
              0.322222,
              47.083333
            ],
            [
              0.191389,
              46.633889
            ],
            [
              -0.095278,
              46.323333
            ],
            [
              -0.593056,
              46.501389
            ],
            [
              -1.245833,
              47.006389
            ],
            [
              -1.230833,
              47.247778
            ],
            [
              -0.816111,
              47.451667
            ]
          ]
        ]
      }
    },
    {
      "type": "Feature",
      "properties": {
        "name": "LF-TRA-9B",
        "type": "TRA",
        "upperFL": 335,
        "lowerFL": 305,
        "activationLimits": [
          {
            "time": [
              "0000",
              "2359"
            ],
            "month": [
              1,
              2,
              3,
              4,
              5,
              6,
              7,
              8,
              9,
              10,
              11,
              12
            ],
            "weekday": [
              1,
              2,
              3,
              4,
              5,
              6,
              7
            ]
          }
        ]
      },
      "geometry": {
        "type": "Polygon",
        "coordinates": [
          [
            [
              0.39,
              48.069167
            ],
            [
              0.526111,
              48.069167
            ],
            [
              0.597778,
              47.328611
            ],
            [
              0.322222,
              47.083333
            ],
            [
              0.275,
              47.298333
            ],
            [
              0.000278,
              47.405833
            ],
            [
              -0.816111,
              47.451667
            ],
            [
              0.39,
              48.069167
            ]
          ]
        ]
      }
    },
    {
      "type": "Feature",
      "properties": {
        "name": "LF-TRA-9C",
        "type": "TRA",
        "upperFL": 999,
        "lowerFL": 335,
        "activationLimits": [
          {
            "time": [
              "0000",
              "2359"
            ],
            "month": [
              1,
              2,
              3,
              4,
              5,
              6,
              7,
              8,
              9,
              10,
              11,
              12
            ],
            "weekday": [
              1,
              2,
              3,
              4,
              5,
              6,
              7
            ]
          }
        ]
      },
      "geometry": {
        "type": "Polygon",
        "coordinates": [
          [
            [
              -0.433889,
              47.430833
            ],
            [
              0.000278,
              47.405833
            ],
            [
              0.195556,
              47.329167
            ],
            [
              -0.095278,
              46.323333
            ],
            [
              -0.549167,
              46.486111
            ],
            [
              -0.674722,
              47.225556
            ],
            [
              -0.433889,
              47.430833
            ]
          ]
        ]
      }
    },
    {
      "type": "Feature",
      "properties": {
        "name": "LF-TRA-9D",
        "type": "TRA",
        "upperFL": 999,
        "lowerFL": 335,
        "activationLimits": [
          {
            "time": [
              "0000",
              "2359"
            ],
            "month": [
              1,
              2,
              3,
              4,
              5,
              6,
              7,
              8,
              9,
              10,
              11,
              12
            ],
            "weekday": [
              1,
              2,
              3,
              4,
              5,
              6,
              7
            ]
          }
        ]
      },
      "geometry": {
        "type": "Polygon",
        "coordinates": [
          [
            [
              0.195556,
              47.329167
            ],
            [
              0.275,
              47.298333
            ],
            [
              0.322222,
              47.083333
            ],
            [
              0.191389,
              46.633889
            ],
            [
              -0.095278,
              46.323333
            ],
            [
              0.195556,
              47.329167
            ]
          ]
        ]
      }
    },
    {
      "type": "Feature",
      "properties": {
        "name": "LF-TRA-10A",
        "type": "TRA",
        "upperFL": 999,
        "lowerFL": 195,
        "activationLimits": [
          {
            "time": [
              "0000",
              "2359"
            ],
            "month": [
              1,
              2,
              3,
              4,
              5,
              6,
              7,
              8,
              9,
              10,
              11,
              12
            ],
            "weekday": [
              1,
              2,
              3,
              4,
              5,
              6,
              7
            ]
          }
        ]
      },
      "geometry": {
        "type": "Polygon",
        "coordinates": [
          [
            [
              1.358611,
              47.749444
            ],
            [
              1.915556,
              47.578611
            ],
            [
              1.929444,
              47.3475
            ],
            [
              1.716667,
              46.487778
            ],
            [
              1.163889,
              46.540556
            ],
            [
              1.188056,
              47.398056
            ],
            [
              1.358611,
              47.749444
            ]
          ]
        ]
      }
    },
    {
      "type": "Feature",
      "properties": {
        "name": "LF-TRA-10B",
        "type": "TRA",
        "upperFL": 285,
        "lowerFL": 195,
        "activationLimits": [
          {
            "time": [
              "0000",
              "2359"
            ],
            "month": [
              1,
              2,
              3,
              4,
              5,
              6,
              7,
              8,
              9,
              10,
              11,
              12
            ],
            "weekday": [
              1,
              2,
              3,
              4,
              5,
              6,
              7
            ]
          }
        ]
      },
      "geometry": {
        "type": "Polygon",
        "coordinates": [
          [
            [
              1.188056,
              47.398056
            ],
            [
              1.163889,
              46.540556
            ],
            [
              1.716667,
              46.487778
            ],
            [
              1.6675,
              46.293333
            ],
            [
              1.439167,
              46.11
            ],
            [
              1.183611,
              46.11
            ],
            [
              0.941944,
              46.25
            ],
            [
              0.901389,
              46.524722
            ],
            [
              0.957222,
              46.701389
            ],
            [
              1.188056,
              47.398056
            ]
          ]
        ]
      }
    },
    {
      "type": "Feature",
      "properties": {
        "name": "LF-TRA-10C1",
        "type": "TRA",
        "upperFL": 285,
        "lowerFL": 275,
        "activationLimits": [
          {
            "time": [
              "0000",
              "2359"
            ],
            "month": [
              1,
              2,
              3,
              4,
              5,
              6,
              7,
              8,
              9,
              10,
              11,
              12
            ],
            "weekday": [
              1,
              2,
              3,
              4,
              5,
              6,
              7
            ]
          }
        ]
      },
      "geometry": {
        "type": "Polygon",
        "coordinates": [
          [
            [
              1.288056,
              48.008333
            ],
            [
              1.653333,
              48.011389
            ],
            [
              1.899167,
              47.850556
            ],
            [
              1.915556,
              47.578611
            ],
            [
              1.929444,
              47.3475
            ],
            [
              1.716667,
              46.487778
            ],
            [
              1.163889,
              46.540556
            ],
            [
              0.957222,
              46.701389
            ],
            [
              0.932222,
              46.72
            ],
            [
              1.080278,
              47.844167
            ],
            [
              1.288056,
              48.008333
            ]
          ]
        ]
      }
    },
    {
      "type": "Feature",
      "properties": {
        "name": "LF-TRA-10C2",
        "type": "TRA",
        "upperFL": 305,
        "lowerFL": 295,
        "activationLimits": [
          {
            "time": [
              "0000",
              "2359"
            ],
            "month": [
              1,
              2,
              3,
              4,
              5,
              6,
              7,
              8,
              9,
              10,
              11,
              12
            ],
            "weekday": [
              1,
              2,
              3,
              4,
              5,
              6,
              7
            ]
          }
        ]
      },
      "geometry": {
        "type": "Polygon",
        "coordinates": [
          [
            [
              1.288056,
              48.008333
            ],
            [
              1.653333,
              48.011389
            ],
            [
              1.899167,
              47.850556
            ],
            [
              1.915556,
              47.578611
            ],
            [
              1.929444,
              47.3475
            ],
            [
              1.716667,
              46.487778
            ],
            [
              1.163889,
              46.540556
            ],
            [
              0.957222,
              46.701389
            ],
            [
              0.932222,
              46.72
            ],
            [
              1.080278,
              47.844167
            ],
            [
              1.288056,
              48.008333
            ]
          ]
        ]
      }
    },
    {
      "type": "Feature",
      "properties": {
        "name": "LF-TRA-10C3",
        "type": "TRA",
        "upperFL": 325,
        "lowerFL": 315,
        "activationLimits": [
          {
            "time": [
              "0000",
              "2359"
            ],
            "month": [
              1,
              2,
              3,
              4,
              5,
              6,
              7,
              8,
              9,
              10,
              11,
              12
            ],
            "weekday": [
              1,
              2,
              3,
              4,
              5,
              6,
              7
            ]
          }
        ]
      },
      "geometry": {
        "type": "Polygon",
        "coordinates": [
          [
            [
              1.288056,
              48.008333
            ],
            [
              1.653333,
              48.011389
            ],
            [
              1.899167,
              47.850556
            ],
            [
              1.915556,
              47.578611
            ],
            [
              1.929444,
              47.3475
            ],
            [
              1.716667,
              46.487778
            ],
            [
              1.163889,
              46.540556
            ],
            [
              0.957222,
              46.701389
            ],
            [
              0.932222,
              46.72
            ],
            [
              1.080278,
              47.844167
            ],
            [
              1.288056,
              48.008333
            ]
          ]
        ]
      }
    },
    {
      "type": "Feature",
      "properties": {
        "name": "LF-TRA-22A1",
        "type": "TRA",
        "upperFL": 999,
        "lowerFL": 195,
        "activationLimits": [
          {
            "time": [
              "0000",
              "2359"
            ],
            "month": [
              1,
              2,
              3,
              4,
              5,
              6,
              7,
              8,
              9,
              10,
              11,
              12
            ],
            "weekday": [
              1,
              2,
              3,
              4,
              5,
              6,
              7
            ]
          }
        ]
      },
      "geometry": {
        "type": "Polygon",
        "coordinates": [
          [
            [
              6.830833,
              48.941944
            ],
            [
              7.148333,
              49.125278
            ],
            [
              7.617222,
              47.987778
            ],
            [
              6.81,
              48.21
            ],
            [
              6.830833,
              48.941944
            ]
          ]
        ]
      }
    },
    {
      "type": "Feature",
      "properties": {
        "name": "LF-TRA-22A2",
        "type": "TRA",
        "upperFL": 999,
        "lowerFL": 195,
        "activationLimits": [
          {
            "time": [
              "0000",
              "2359"
            ],
            "month": [
              1,
              2,
              3,
              4,
              5,
              6,
              7,
              8,
              9,
              10,
              11,
              12
            ],
            "weekday": [
              1,
              2,
              3,
              4,
              5,
              6,
              7
            ]
          }
        ]
      },
      "geometry": {
        "type": "Polygon",
        "coordinates": [
          [
            [
              6.830833,
              48.941944
            ],
            [
              6.833333,
              49.033333
            ],
            [
              6.685833,
              49.2175
            ],
            [
              6.689722,
              49.220556
            ],
            [
              7.148333,
              49.125278
            ],
            [
              6.830833,
              48.941944
            ]
          ]
        ]
      }
    },
    {
      "type": "Feature",
      "properties": {
        "name": "LF-TRA-22B",
        "type": "TRA",
        "upperFL": 285,
        "lowerFL": 195,
        "activationLimits": [
          {
            "time": [
              "0000",
              "2359"
            ],
            "month": [
              1,
              2,
              3,
              4,
              5,
              6,
              7,
              8,
              9,
              10,
              11,
              12
            ],
            "weekday": [
              1,
              2,
              3,
              4,
              5,
              6,
              7
            ]
          }
        ]
      },
      "geometry": {
        "type": "Polygon",
        "coordinates": [
          [
            [
              6.81,
              48.21
            ],
            [
              7.617222,
              47.987778
            ],
            [
              7.555556,
              47.830833
            ],
            [
              6.801111,
              48.031944
            ],
            [
              6.81,
              48.21
            ]
          ]
        ]
      }
    },
    {
      "type": "Feature",
      "properties": {
        "name": "LF-TRA-24A",
        "type": "TRA",
        "upperFL": 999,
        "lowerFL": 195,
        "activationLimits": [
          {
            "time": [
              "0000",
              "2359"
            ],
            "month": [
              1,
              2,
              3,
              4,
              5,
              6,
              7,
              8,
              9,
              10,
              11,
              12
            ],
            "weekday": [
              1,
              2,
              3,
              4,
              5,
              6,
              7
            ]
          }
        ]
      },
      "geometry": {
        "type": "Polygon",
        "coordinates": [
          [
            [
              4.048611,
              47.828333
            ],
            [
              4.968056,
              47.24
            ],
            [
              4.886944,
              46.799444
            ],
            [
              4.349444,
              46.878056
            ],
            [
              3.939722,
              47.571111
            ],
            [
              3.997778,
              47.835556
            ],
            [
              4.048611,
              47.828333
            ]
          ]
        ]
      }
    },
    {
      "type": "Feature",
      "properties": {
        "name": "LF-TRA-24B",
        "type": "TRA",
        "upperFL": 999,
        "lowerFL": 195,
        "activationLimits": [
          {
            "time": [
              "0000",
              "2359"
            ],
            "month": [
              1,
              2,
              3,
              4,
              5,
              6,
              7,
              8,
              9,
              10,
              11,
              12
            ],
            "weekday": [
              1,
              2,
              3,
              4,
              5,
              6,
              7
            ]
          }
        ]
      },
      "geometry": {
        "type": "Polygon",
        "coordinates": [
          [
            [
              3.967778,
              47.699444
            ],
            [
              4.966667,
              47.231667
            ],
            [
              4.886944,
              46.799444
            ],
            [
              4.349444,
              46.878056
            ],
            [
              3.939722,
              47.571111
            ],
            [
              3.967778,
              47.699444
            ]
          ]
        ]
      }
    },
    {
      "type": "Feature",
      "properties": {
        "name": "LF-TRA-34A",
        "type": "TRA",
        "upperFL": 999,
        "lowerFL": 195,
        "activationLimits": [
          {
            "time": [
              "0000",
              "2359"
            ],
            "month": [
              1,
              2,
              3,
              4,
              5,
              6,
              7,
              8,
              9,
              10,
              11,
              12
            ],
            "weekday": [
              1,
              2,
              3,
              4,
              5,
              6,
              7
            ]
          }
        ]
      },
      "geometry": {
        "type": "Polygon",
        "coordinates": [
          [
            [
              -0.219722,
              44.606944
            ],
            [
              0.400278,
              44.386667
            ],
            [
              0.551944,
              44.005278
            ],
            [
              0.422778,
              43.744167
            ],
            [
              0.382222,
              43.6875
            ],
            [
              -0.736111,
              42.935833
            ],
            [
              -1.473333,
              43.271111
            ],
            [
              -0.219722,
              44.606944
            ]
          ]
        ]
      }
    },
    {
      "type": "Feature",
      "properties": {
        "name": "LF-TRA-34B",
        "type": "TRA",
        "upperFL": 999,
        "lowerFL": 195,
        "activationLimits": [
          {
            "time": [
              "0000",
              "2359"
            ],
            "month": [
              1,
              2,
              3,
              4,
              5,
              6,
              7,
              8,
              9,
              10,
              11,
              12
            ],
            "weekday": [
              1,
              2,
              3,
              4,
              5,
              6,
              7
            ]
          }
        ]
      },
      "geometry": {
        "type": "Polygon",
        "coordinates": [
          [
            [
              -0.219722,
              44.606944
            ],
            [
              0.400278,
              44.386667
            ],
            [
              0.422778,
              43.744167
            ],
            [
              0.382222,
              43.6875
            ],
            [
              -0.736111,
              42.935833
            ],
            [
              -1.473333,
              43.271111
            ],
            [
              -0.219722,
              44.606944
            ]
          ]
        ]
      }
    },
    {
      "type": "Feature",
      "properties": {
        "name": "LF-TRA-34C",
        "type": "TRA",
        "upperFL": 999,
        "lowerFL": 195,
        "activationLimits": [
          {
            "time": [
              "0000",
              "2359"
            ],
            "month": [
              1,
              2,
              3,
              4,
              5,
              6,
              7,
              8,
              9,
              10,
              11,
              12
            ],
            "weekday": [
              1,
              2,
              3,
              4,
              5,
              6,
              7
            ]
          }
        ]
      },
      "geometry": {
        "type": "Polygon",
        "coordinates": [
          [
            [
              -0.219722,
              44.606944
            ],
            [
              0.386111,
              44.391667
            ],
            [
              -0.023056,
              43.413889
            ],
            [
              -0.736111,
              42.935833
            ],
            [
              -1.473333,
              43.271111
            ],
            [
              -0.219722,
              44.606944
            ]
          ]
        ]
      }
    },
    {
      "type": "Feature",
      "properties": {
        "name": "LF-TRA-34D",
        "type": "TRA",
        "upperFL": 999,
        "lowerFL": 195,
        "activationLimits": [
          {
            "time": [
              "0000",
              "2359"
            ],
            "month": [
              1,
              2,
              3,
              4,
              5,
              6,
              7,
              8,
              9,
              10,
              11,
              12
            ],
            "weekday": [
              1,
              2,
              3,
              4,
              5,
              6,
              7
            ]
          }
        ]
      },
      "geometry": {
        "type": "Polygon",
        "coordinates": [
          [
            [
              -0.166667,
              44.544444
            ],
            [
              0.303889,
              44.197778
            ],
            [
              0.011667,
              43.498056
            ],
            [
              -0.752778,
              43.203611
            ],
            [
              -1.264167,
              43.283889
            ],
            [
              -1.391389,
              43.347778
            ],
            [
              -0.851389,
              43.936667
            ],
            [
              -0.166667,
              44.544444
            ]
          ]
        ]
      }
    },
    {
      "type": "Feature",
      "properties": {
        "name": "LF-TRA-34E",
        "type": "TRA",
        "upperFL": 345,
        "lowerFL": 195,
        "activationLimits": [
          {
            "time": [
              "0000",
              "2359"
            ],
            "month": [
              1,
              2,
              3,
              4,
              5,
              6,
              7,
              8,
              9,
              10,
              11,
              12
            ],
            "weekday": [
              1,
              2,
              3,
              4,
              5,
              6,
              7
            ]
          }
        ]
      },
      "geometry": {
        "type": "Polygon",
        "coordinates": [
          [
            [
              0.386111,
              44.391667
            ],
            [
              0.400278,
              44.386667
            ],
            [
              0.422778,
              43.744167
            ],
            [
              0.382222,
              43.6875
            ],
            [
              -0.023056,
              43.413889
            ],
            [
              0.386111,
              44.391667
            ]
          ]
        ]
      }
    },
    {
      "type": "Feature",
      "properties": {
        "name": "LF-TRA-34N",
        "type": "TRA",
        "upperFL": 999,
        "lowerFL": 245,
        "activationLimits": [
          {
            "time": [
              "0000",
              "2359"
            ],
            "month": [
              1,
              2,
              3,
              4,
              5,
              6,
              7,
              8,
              9,
              10,
              11,
              12
            ],
            "weekday": [
              1,
              2,
              3,
              4,
              5,
              6,
              7
            ]
          }
        ]
      },
      "geometry": {
        "type": "Polygon",
        "coordinates": [
          [
            [
              0.041667,
              44.775
            ],
            [
              0.400278,
              44.386667
            ],
            [
              -0.219722,
              44.606944
            ],
            [
              0.041667,
              44.775
            ]
          ]
        ]
      }
    },
    {
      "type": "Feature",
      "properties": {
        "name": "LF-TRA-40",
        "type": "TRA",
        "upperFL": 999,
        "lowerFL": 195,
        "activationLimits": [
          {
            "time": [
              "0000",
              "2359"
            ],
            "month": [
              1,
              2,
              3,
              4,
              5,
              6,
              7,
              8,
              9,
              10,
              11,
              12
            ],
            "weekday": [
              1,
              2,
              3,
              4,
              5,
              6,
              7
            ]
          }
        ]
      },
      "geometry": {
        "type": "Polygon",
        "coordinates": [
          [
            [
              1.951667,
              43.848056
            ],
            [
              2.739167,
              43.714444
            ],
            [
              2.755,
              42.751111
            ],
            [
              2.693611,
              42.412222
            ],
            [
              2.363889,
              42.408333
            ],
            [
              2.057222,
              42.705
            ],
            [
              1.951667,
              43.848056
            ]
          ]
        ]
      }
    },
    {
      "type": "Feature",
      "properties": {
        "name": "LF-TRA-41",
        "type": "TRA",
        "upperFL": 999,
        "lowerFL": 195,
        "activationLimits": [
          {
            "time": [
              "0000",
              "2359"
            ],
            "month": [
              1,
              2,
              3,
              4,
              5,
              6,
              7,
              8,
              9,
              10,
              11,
              12
            ],
            "weekday": [
              1,
              2,
              3,
              4,
              5,
              6,
              7
            ]
          }
        ]
      },
      "geometry": {
        "type": "Polygon",
        "coordinates": [
          [
            [
              3.124444,
              43.647778
            ],
            [
              3.915278,
              43.505
            ],
            [
              4.521389,
              43.094722
            ],
            [
              3.040833,
              43.094722
            ],
            [
              3.124444,
              43.647778
            ]
          ]
        ]
      }
    },
    {
      "type": "Feature",
      "properties": {
        "name": "LF-TRA-42N",
        "type": "TRA",
        "upperFL": 999,
        "lowerFL": 195,
        "activationLimits": [
          {
            "time": [
              "0000",
              "2359"
            ],
            "month": [
              1,
              2,
              3,
              4,
              5,
              6,
              7,
              8,
              9,
              10,
              11,
              12
            ],
            "weekday": [
              1,
              2,
              3,
              4,
              5,
              6,
              7
            ]
          }
        ]
      },
      "geometry": {
        "type": "Polygon",
        "coordinates": [
          [
            [
              4.2,
              44.915278
            ],
            [
              4.428611,
              44.634444
            ],
            [
              4.507222,
              44.383056
            ],
            [
              3.666389,
              43.886389
            ],
            [
              3.286111,
              44.125278
            ],
            [
              3.28,
              44.558333
            ],
            [
              3.505556,
              44.646944
            ],
            [
              4.2,
              44.915278
            ]
          ]
        ]
      }
    },
    {
      "type": "Feature",
      "properties": {
        "name": "LF-TRA-42NT",
        "type": "TRA",
        "upperFL": 999,
        "lowerFL": 195,
        "activationLimits": [
          {
            "time": [
              "0000",
              "2359"
            ],
            "month": [
              1,
              2,
              3,
              4,
              5,
              6,
              7,
              8,
              9,
              10,
              11,
              12
            ],
            "weekday": [
              1,
              2,
              3,
              4,
              5,
              6,
              7
            ]
          }
        ]
      },
      "geometry": {
        "type": "Polygon",
        "coordinates": [
          [
            [
              4.314167,
              44.775278
            ],
            [
              4.428611,
              44.634444
            ],
            [
              4.507222,
              44.383056
            ],
            [
              3.666389,
              43.886389
            ],
            [
              3.286111,
              44.125278
            ],
            [
              3.279444,
              44.547222
            ],
            [
              4.314167,
              44.775278
            ]
          ]
        ]
      }
    },
    {
      "type": "Feature",
      "properties": {
        "name": "LF-TRA-42S",
        "type": "TRA",
        "upperFL": 999,
        "lowerFL": 195,
        "activationLimits": [
          {
            "time": [
              "0000",
              "2359"
            ],
            "month": [
              1,
              2,
              3,
              4,
              5,
              6,
              7,
              8,
              9,
              10,
              11,
              12
            ],
            "weekday": [
              1,
              2,
              3,
              4,
              5,
              6,
              7
            ]
          }
        ]
      },
      "geometry": {
        "type": "Polygon",
        "coordinates": [
          [
            [
              4.507222,
              44.383056
            ],
            [
              4.635278,
              43.969722
            ],
            [
              4.896389,
              43.505833
            ],
            [
              4.026667,
              43.657222
            ],
            [
              3.666389,
              43.886389
            ],
            [
              4.507222,
              44.383056
            ]
          ]
        ]
      }
    },
    {
      "type": "Feature",
      "properties": {
        "name": "LF-TRA-43A",
        "type": "TRA",
        "upperFL": 999,
        "lowerFL": 195,
        "activationLimits": [
          {
            "time": [
              "0000",
              "2359"
            ],
            "month": [
              1,
              2,
              3,
              4,
              5,
              6,
              7,
              8,
              9,
              10,
              11,
              12
            ],
            "weekday": [
              1,
              2,
              3,
              4,
              5,
              6,
              7
            ]
          }
        ]
      },
      "geometry": {
        "type": "Polygon",
        "coordinates": [
          [
            [
              1.778333,
              45.734444
            ],
            [
              1.870833,
              45.827778
            ],
            [
              2.028056,
              45.889444
            ],
            [
              2.736111,
              45.912222
            ],
            [
              2.833333,
              45.728611
            ],
            [
              2.815833,
              45.006389
            ],
            [
              2.620556,
              44.838889
            ],
            [
              2.369444,
              44.711111
            ],
            [
              1.878056,
              44.711111
            ],
            [
              1.738333,
              44.802778
            ],
            [
              1.554444,
              45.508333
            ],
            [
              1.778333,
              45.734444
            ]
          ]
        ]
      }
    },
    {
      "type": "Feature",
      "properties": {
        "name": "LF-TRA-43C",
        "type": "TRA",
        "upperFL": 999,
        "lowerFL": 195,
        "activationLimits": [
          {
            "time": [
              "0000",
              "2359"
            ],
            "month": [
              1,
              2,
              3,
              4,
              5,
              6,
              7,
              8,
              9,
              10,
              11,
              12
            ],
            "weekday": [
              1,
              2,
              3,
              4,
              5,
              6,
              7
            ]
          }
        ]
      },
      "geometry": {
        "type": "Polygon",
        "coordinates": [
          [
            [
              1.778333,
              45.734444
            ],
            [
              2.833333,
              45.728611
            ],
            [
              2.815833,
              45.006389
            ],
            [
              2.620556,
              44.838889
            ],
            [
              2.369444,
              44.711111
            ],
            [
              1.878056,
              44.711111
            ],
            [
              1.820556,
              44.748889
            ],
            [
              1.723056,
              45.679167
            ],
            [
              1.778333,
              45.734444
            ]
          ]
        ]
      }
    },
    {
      "type": "Feature",
      "properties": {
        "name": "LF-TRA-43N",
        "type": "TRA",
        "upperFL": 999,
        "lowerFL": 195,
        "activationLimits": [
          {
            "time": [
              "0000",
              "2359"
            ],
            "month": [
              1,
              2,
              3,
              4,
              5,
              6,
              7,
              8,
              9,
              10,
              11,
              12
            ],
            "weekday": [
              1,
              2,
              3,
              4,
              5,
              6,
              7
            ]
          }
        ]
      },
      "geometry": {
        "type": "Polygon",
        "coordinates": [
          [
            [
              1.870833,
              45.827778
            ],
            [
              2.028056,
              45.889444
            ],
            [
              2.736111,
              45.912222
            ],
            [
              2.833333,
              45.728611
            ],
            [
              2.815833,
              45.006389
            ],
            [
              2.620556,
              44.838889
            ],
            [
              2.369444,
              44.711111
            ],
            [
              1.878056,
              44.711111
            ],
            [
              1.820556,
              44.748889
            ],
            [
              1.723056,
              45.679167
            ],
            [
              1.870833,
              45.827778
            ]
          ]
        ]
      }
    },
    {
      "type": "Feature",
      "properties": {
        "name": "LF-TRA-43W",
        "type": "TRA",
        "upperFL": 999,
        "lowerFL": 195,
        "activationLimits": [
          {
            "time": [
              "0000",
              "2359"
            ],
            "month": [
              1,
              2,
              3,
              4,
              5,
              6,
              7,
              8,
              9,
              10,
              11,
              12
            ],
            "weekday": [
              1,
              2,
              3,
              4,
              5,
              6,
              7
            ]
          }
        ]
      },
      "geometry": {
        "type": "Polygon",
        "coordinates": [
          [
            [
              1.778333,
              45.734444
            ],
            [
              2.833333,
              45.728611
            ],
            [
              2.815833,
              45.006389
            ],
            [
              2.620556,
              44.838889
            ],
            [
              2.369444,
              44.711111
            ],
            [
              1.878056,
              44.711111
            ],
            [
              1.738333,
              44.802778
            ],
            [
              1.554444,
              45.508333
            ],
            [
              1.778333,
              45.734444
            ]
          ]
        ]
      }
    },
    {
      "type": "Feature",
      "properties": {
        "name": "LF-TRA-44A",
        "type": "TRA",
        "upperFL": 999,
        "lowerFL": 195,
        "activationLimits": [
          {
            "time": [
              "0000",
              "2359"
            ],
            "month": [
              1,
              2,
              3,
              4,
              5,
              6,
              7,
              8,
              9,
              10,
              11,
              12
            ],
            "weekday": [
              1,
              2,
              3,
              4,
              5,
              6,
              7
            ]
          }
        ]
      },
      "geometry": {
        "type": "Polygon",
        "coordinates": [
          [
            [
              9.749444,
              42.31
            ],
            [
              9.7,
              42.3
            ],
            [
              9.7,
              41.333611
            ],
            [
              9.320278,
              41.416389
            ],
            [
              9.225,
              41.501389
            ],
            [
              9.2175,
              42.5725
            ],
            [
              9.749444,
              42.31
            ]
          ]
        ]
      }
    },
    {
      "type": "Feature",
      "properties": {
        "name": "LF-TRA-44B",
        "type": "TRA",
        "upperFL": 999,
        "lowerFL": 195,
        "activationLimits": [
          {
            "time": [
              "0000",
              "2359"
            ],
            "month": [
              1,
              2,
              3,
              4,
              5,
              6,
              7,
              8,
              9,
              10,
              11,
              12
            ],
            "weekday": [
              1,
              2,
              3,
              4,
              5,
              6,
              7
            ]
          }
        ]
      },
      "geometry": {
        "type": "Polygon",
        "coordinates": [
          [
            [
              9.2175,
              42.5725
            ],
            [
              9.224444,
              41.569444
            ],
            [
              8.912222,
              41.999444
            ],
            [
              8.987222,
              42.653889
            ],
            [
              9.2175,
              42.5725
            ]
          ]
        ]
      }
    },
    {
      "type": "Feature",
      "properties": {
        "name": "LF-TRA-44C1",
        "type": "TRA",
        "upperFL": 265,
        "lowerFL": 195,
        "activationLimits": [
          {
            "time": [
              "0000",
              "2359"
            ],
            "month": [
              1,
              2,
              3,
              4,
              5,
              6,
              7,
              8,
              9,
              10,
              11,
              12
            ],
            "weekday": [
              1,
              2,
              3,
              4,
              5,
              6,
              7
            ]
          }
        ]
      },
      "geometry": {
        "type": "Polygon",
        "coordinates": [
          [
            [
              8.987222,
              42.653889
            ],
            [
              8.912222,
              41.999444
            ],
            [
              8.5675,
              42.466667
            ],
            [
              8.724444,
              42.7625
            ],
            [
              8.987222,
              42.653889
            ]
          ]
        ]
      }
    },
    {
      "type": "Feature",
      "properties": {
        "name": "LF-TRA-44C2",
        "type": "TRA",
        "upperFL": 999,
        "lowerFL": 265,
        "activationLimits": [
          {
            "time": [
              "0000",
              "2359"
            ],
            "month": [
              1,
              2,
              3,
              4,
              5,
              6,
              7,
              8,
              9,
              10,
              11,
              12
            ],
            "weekday": [
              1,
              2,
              3,
              4,
              5,
              6,
              7
            ]
          }
        ]
      },
      "geometry": {
        "type": "Polygon",
        "coordinates": [
          [
            [
              8.987222,
              42.653889
            ],
            [
              8.912222,
              41.999444
            ],
            [
              8.5675,
              42.466667
            ],
            [
              8.724444,
              42.7625
            ],
            [
              8.987222,
              42.653889
            ]
          ]
        ]
      }
    },
    {
      "type": "Feature",
      "properties": {
        "name": "LF-TRA-44D1",
        "type": "TRA",
        "upperFL": 265,
        "lowerFL": 195,
        "activationLimits": [
          {
            "time": [
              "0000",
              "2359"
            ],
            "month": [
              1,
              2,
              3,
              4,
              5,
              6,
              7,
              8,
              9,
              10,
              11,
              12
            ],
            "weekday": [
              1,
              2,
              3,
              4,
              5,
              6,
              7
            ]
          }
        ]
      },
      "geometry": {
        "type": "Polygon",
        "coordinates": [
          [
            [
              9.225,
              41.501389
            ],
            [
              8.889444,
              41.798056
            ],
            [
              8.557222,
              42.240556
            ],
            [
              8.551944,
              42.437222
            ],
            [
              8.5675,
              42.466667
            ],
            [
              9.224444,
              41.569444
            ],
            [
              9.225,
              41.501389
            ]
          ]
        ]
      }
    },
    {
      "type": "Feature",
      "properties": {
        "name": "LF-TRA-44D2",
        "type": "TRA",
        "upperFL": 999,
        "lowerFL": 265,
        "activationLimits": [
          {
            "time": [
              "0000",
              "2359"
            ],
            "month": [
              1,
              2,
              3,
              4,
              5,
              6,
              7,
              8,
              9,
              10,
              11,
              12
            ],
            "weekday": [
              1,
              2,
              3,
              4,
              5,
              6,
              7
            ]
          }
        ]
      },
      "geometry": {
        "type": "Polygon",
        "coordinates": [
          [
            [
              9.225,
              41.501389
            ],
            [
              8.889444,
              41.798056
            ],
            [
              8.557222,
              42.240556
            ],
            [
              8.551944,
              42.437222
            ],
            [
              8.5675,
              42.466667
            ],
            [
              9.224444,
              41.569444
            ],
            [
              9.225,
              41.501389
            ]
          ]
        ]
      }
    },
    {
      "type": "Feature",
      "properties": {
        "name": "LF-TRA-46N",
        "type": "TRA",
        "upperFL": 999,
        "lowerFL": 195,
        "activationLimits": [
          {
            "time": [
              "0000",
              "2359"
            ],
            "month": [
              1,
              2,
              3,
              4,
              5,
              6,
              7,
              8,
              9,
              10,
              11,
              12
            ],
            "weekday": [
              1,
              2,
              3,
              4,
              5,
              6,
              7
            ]
          }
        ]
      },
      "geometry": {
        "type": "Polygon",
        "coordinates": [
          [
            [
              3.040833,
              43.094722
            ],
            [
              4.521389,
              43.094722
            ],
            [
              4.363333,
              42.760278
            ],
            [
              2.984444,
              42.760278
            ],
            [
              3.040833,
              43.094722
            ]
          ]
        ]
      }
    },
    {
      "type": "Feature",
      "properties": {
        "name": "LF-TRA-46S",
        "type": "TRA",
        "upperFL": 999,
        "lowerFL": 195,
        "activationLimits": [
          {
            "time": [
              "0000",
              "2359"
            ],
            "month": [
              1,
              2,
              3,
              4,
              5,
              6,
              7,
              8,
              9,
              10,
              11,
              12
            ],
            "weekday": [
              1,
              2,
              3,
              4,
              5,
              6,
              7
            ]
          }
        ]
      },
      "geometry": {
        "type": "Polygon",
        "coordinates": [
          [
            [
              3.200556,
              42.449722
            ],
            [
              2.984444,
              42.760278
            ],
            [
              4.363333,
              42.760278
            ],
            [
              3.924444,
              42.275833
            ],
            [
              3.854167,
              42.2525
            ],
            [
              3.200556,
              42.449722
            ]
          ]
        ]
      }
    },
    {
      "type": "Feature",
      "properties": {
        "name": "LF-TRA-200A",
        "type": "TRA",
        "upperFL": 999,
        "lowerFL": 195,
        "activationLimits": [
          {
            "time": [
              "0000",
              "2359"
            ],
            "month": [
              1,
              2,
              3,
              4,
              5,
              6,
              7,
              8,
              9,
              10,
              11,
              12
            ],
            "weekday": [
              1,
              2,
              3,
              4,
              5,
              6,
              7
            ]
          }
        ]
      },
      "geometry": {
        "type": "Polygon",
        "coordinates": [
          [
            [
              5.906389,
              49.451667
            ],
            [
              6.079444,
              49.446389
            ],
            [
              6.25,
              49.310556
            ],
            [
              6.225,
              48.690556
            ],
            [
              5.942222,
              48.495556
            ],
            [
              5.169167,
              48.389444
            ],
            [
              4.288056,
              48.809444
            ],
            [
              4.288056,
              49.028889
            ],
            [
              5.811111,
              49.431111
            ],
            [
              5.906389,
              49.451667
            ]
          ]
        ]
      }
    },
    {
      "type": "Feature",
      "properties": {
        "name": "LF-TRA-200C",
        "type": "TRA",
        "upperFL": 999,
        "lowerFL": 195,
        "activationLimits": [
          {
            "time": [
              "0000",
              "2359"
            ],
            "month": [
              1,
              2,
              3,
              4,
              5,
              6,
              7,
              8,
              9,
              10,
              11,
              12
            ],
            "weekday": [
              1,
              2,
              3,
              4,
              5,
              6,
              7
            ]
          }
        ]
      },
      "geometry": {
        "type": "Polygon",
        "coordinates": [
          [
            [
              5.830556,
              49.347778
            ],
            [
              5.9575,
              48.805556
            ],
            [
              5.951389,
              48.679722
            ],
            [
              5.201389,
              48.631111
            ],
            [
              4.5875,
              48.861389
            ],
            [
              4.5875,
              49.018889
            ],
            [
              5.830556,
              49.347778
            ]
          ]
        ]
      }
    },
    {
      "type": "Feature",
      "properties": {
        "name": "LF-TRA-200E",
        "type": "TRA",
        "upperFL": 999,
        "lowerFL": 195,
        "activationLimits": [
          {
            "time": [
              "0000",
              "2359"
            ],
            "month": [
              1,
              2,
              3,
              4,
              5,
              6,
              7,
              8,
              9,
              10,
              11,
              12
            ],
            "weekday": [
              1,
              2,
              3,
              4,
              5,
              6,
              7
            ]
          }
        ]
      },
      "geometry": {
        "type": "Polygon",
        "coordinates": [
          [
            [
              5.906389,
              49.451667
            ],
            [
              6.079444,
              49.446389
            ],
            [
              6.25,
              49.310556
            ],
            [
              6.225,
              48.690556
            ],
            [
              5.942222,
              48.495556
            ],
            [
              5.616111,
              48.475556
            ],
            [
              4.5875,
              48.861389
            ],
            [
              4.5875,
              49.108056
            ],
            [
              5.811111,
              49.431111
            ],
            [
              5.906389,
              49.451667
            ]
          ]
        ]
      }
    },
    {
      "type": "Feature",
      "properties": {
        "name": "LF-TRA-200W",
        "type": "TRA",
        "upperFL": 999,
        "lowerFL": 195,
        "activationLimits": [
          {
            "time": [
              "0000",
              "2359"
            ],
            "month": [
              1,
              2,
              3,
              4,
              5,
              6,
              7,
              8,
              9,
              10,
              11,
              12
            ],
            "weekday": [
              1,
              2,
              3,
              4,
              5,
              6,
              7
            ]
          }
        ]
      },
      "geometry": {
        "type": "Polygon",
        "coordinates": [
          [
            [
              5.811111,
              49.431111
            ],
            [
              5.9575,
              48.805556
            ],
            [
              5.942222,
              48.495556
            ],
            [
              5.178333,
              48.446111
            ],
            [
              4.288056,
              48.809444
            ],
            [
              4.288056,
              49.028889
            ],
            [
              5.811111,
              49.431111
            ]
          ]
        ]
      }
    },
    {
      "type": "Feature",
      "properties": {
        "name": "EU-CBA-1H",
        "type": "CBA",
        "upperFL": 355,
        "lowerFL": 315,
        "activationLimits": [
          {
            "time": [
              "0000",
              "2359"
            ],
            "month": [
              1,
              2,
              3,
              4,
              5,
              6,
              7,
              8,
              9,
              10,
              11,
              12
            ],
            "weekday": [
              1,
              2,
              3,
              4,
              5,
              6,
              7
            ]
          }
        ]
      },
      "geometry": {
        "type": "Polygon",
        "coordinates": [
          [
            [
              2.049167,
              51.021389
            ],
            [
              2.683333,
              50.985278
            ],
            [
              2.895556,
              50.936667
            ],
            [
              3.076111,
              50.754722
            ],
            [
              2.933333,
              50.5675
            ],
            [
              2.751111,
              50.430556
            ],
            [
              2.557778,
              50.430556
            ],
            [
              1.866944,
              50.921389
            ],
            [
              2.049167,
              51.021389
            ]
          ]
        ]
      }
    },
    {
      "type": "Feature",
      "properties": {
        "name": "EU-CBA-1L",
        "type": "CBA",
        "upperFL": 265,
        "lowerFL": 195,
        "activationLimits": [
          {
            "time": [
              "0000",
              "2359"
            ],
            "month": [
              1,
              2,
              3,
              4,
              5,
              6,
              7,
              8,
              9,
              10,
              11,
              12
            ],
            "weekday": [
              1,
              2,
              3,
              4,
              5,
              6,
              7
            ]
          }
        ]
      },
      "geometry": {
        "type": "Polygon",
        "coordinates": [
          [
            [
              2.049167,
              51.021389
            ],
            [
              2.683333,
              50.985278
            ],
            [
              2.895556,
              50.936667
            ],
            [
              3.076111,
              50.754722
            ],
            [
              2.933333,
              50.5675
            ],
            [
              2.751111,
              50.430556
            ],
            [
              2.557778,
              50.430556
            ],
            [
              1.866944,
              50.921389
            ],
            [
              2.049167,
              51.021389
            ]
          ]
        ]
      }
    },
    {
      "type": "Feature",
      "properties": {
        "name": "EU-CBA-1M",
        "type": "CBA",
        "upperFL": 315,
        "lowerFL": 265,
        "activationLimits": [
          {
            "time": [
              "0000",
              "2359"
            ],
            "month": [
              1,
              2,
              3,
              4,
              5,
              6,
              7,
              8,
              9,
              10,
              11,
              12
            ],
            "weekday": [
              1,
              2,
              3,
              4,
              5,
              6,
              7
            ]
          }
        ]
      },
      "geometry": {
        "type": "Polygon",
        "coordinates": [
          [
            [
              2.049167,
              51.021389
            ],
            [
              2.683333,
              50.985278
            ],
            [
              2.895556,
              50.936667
            ],
            [
              3.076111,
              50.754722
            ],
            [
              2.933333,
              50.5675
            ],
            [
              2.751111,
              50.430556
            ],
            [
              2.557778,
              50.430556
            ],
            [
              1.866944,
              50.921389
            ],
            [
              2.049167,
              51.021389
            ]
          ]
        ]
      }
    },
    {
      "type": "Feature",
      "properties": {
        "name": "EU-CBA-25FC",
        "type": "CBA",
        "upperFL": 195,
        "lowerFL": 115,
        "activationLimits": [
          {
            "time": [
              "0000",
              "2359"
            ],
            "month": [
              1,
              2,
              3,
              4,
              5,
              6,
              7,
              8,
              9,
              10,
              11,
              12
            ],
            "weekday": [
              1,
              2,
              3,
              4,
              5,
              6,
              7
            ]
          }
        ]
      },
      "geometry": {
        "type": "Polygon",
        "coordinates": [
          [
            [
              6.003611,
              47.66
            ],
            [
              6.246944,
              47.611111
            ],
            [
              6.344722,
              47.583333
            ],
            [
              6.333333,
              47.533333
            ],
            [
              6.603333,
              47.333333
            ],
            [
              6.181111,
              46.967222
            ],
            [
              5.791389,
              46.973333
            ],
            [
              5.608333,
              47.083333
            ],
            [
              5.608333,
              47.469444
            ],
            [
              6.003611,
              47.66
            ]
          ]
        ]
      }
    },
    {
      "type": "Feature",
      "properties": {
        "name": "EU-CBA-25FE",
        "type": "CBA",
        "upperFL": 195,
        "lowerFL": 115,
        "activationLimits": [
          {
            "time": [
              "0000",
              "2359"
            ],
            "month": [
              1,
              2,
              3,
              4,
              5,
              6,
              7,
              8,
              9,
              10,
              11,
              12
            ],
            "weekday": [
              1,
              2,
              3,
              4,
              5,
              6,
              7
            ]
          }
        ]
      },
      "geometry": {
        "type": "Polygon",
        "coordinates": [
          [
            [
              6.603333,
              47.333333
            ],
            [
              6.964722,
              47.292222
            ],
            [
              6.475833,
              46.960278
            ],
            [
              6.181111,
              46.967222
            ],
            [
              6.603333,
              47.333333
            ]
          ]
        ]
      }
    },
    {
      "type": "Feature",
      "properties": {
        "name": "EU-CBA-25FW",
        "type": "CBA",
        "upperFL": 195,
        "lowerFL": 65,
        "activationLimits": [
          {
            "time": [
              "0000",
              "2359"
            ],
            "month": [
              1,
              2,
              3,
              4,
              5,
              6,
              7,
              8,
              9,
              10,
              11,
              12
            ],
            "weekday": [
              1,
              2,
              3,
              4,
              5,
              6,
              7
            ]
          }
        ]
      },
      "geometry": {
        "type": "Polygon",
        "coordinates": [
          [
            [
              5.608333,
              47.741667
            ],
            [
              6.003611,
              47.66
            ],
            [
              5.608333,
              47.469444
            ],
            [
              5.608333,
              47.083333
            ],
            [
              5.196111,
              47.323056
            ],
            [
              5.249722,
              47.715556
            ],
            [
              5.608333,
              47.741667
            ]
          ]
        ]
      }
    }
  ]
}