{
  "type": "FeatureCollection",
  "features": [
    {
      "type": "Feature",
      "properties": {
        "name": "OK-R01",
        "type": "RAWDATEIN",
        "lowerFL": 0,
        "upperFL": 999
      },
      "geometry": {
        "type": "Polygon",
        "coordinates": [
          [
            [
              47.69972222222222,
              29.42388888888889
            ],
            [
              47.77943611111111,
              29.43232888888889
            ],
            [
              47.78286083333333,
              29.435805833333333
            ],
            [
              47.78288888888889,
              29.436610833333333
            ],
            [
              47.783693888888884,
              29.43744388888889
            ],
            [
              47.783721944444444,
              29.43830611111111
            ],
            [
              47.787083055555556,
              29.44161111111111
            ],
            [
              47.78702777777777,
              29.442471944444446
            ],
            [
              47.790388888888884,
              29.445778055555557
            ],
            [
              47.79036083333333,
              29.446638888888888
            ],
            [
              47.792028055555555,
              29.44827777777778
            ],
            [
              47.79205611111111,
              29.44913888888889
            ],
            [
              47.79541694444444,
              29.452443888888887
            ],
            [
              47.79538888888889,
              29.45330611111111
            ],
            [
              47.79619388888889,
              29.454138888888888
            ],
            [
              47.79619388888889,
              29.454999722222222
            ],
            [
              47.797888888888885,
              29.45663888888889
            ],
            [
              47.797916944444445,
              29.45744388888889
            ],
            [
              47.798721944444445,
              29.458277777777777
            ],
            [
              47.79874972222222,
              29.459138888888887
            ],
            [
              47.803666944444444,
              29.46413888888889
            ],
            [
              47.803666944444444,
              29.464971944444443
            ],
            [
              47.80497194444444,
              29.466221944444445
            ],
            [
              47.80580583333333,
              29.46619388888889
            ],
            [
              47.807028055555556,
              29.46722222222222
            ],
            [
              47.80705611111111,
              29.468305833333332
            ],
            [
              47.80744388888888,
              29.46875
            ],
            [
              47.80830611111111,
              29.468721944444443
            ],
            [
              47.8132775,
              29.473721944444442
            ],
            [
              47.81413777777777,
              29.47369388888889
            ],
            [
              47.814943888888884,
              29.474528611111108
            ],
            [
              47.81580694444444,
              29.47458361111111
            ],
            [
              47.81747138888889,
              29.47619333333333
            ],
            [
              47.818250000000006,
              29.476249166666666
            ],
            [
              47.834556944444444,
              29.492501944444445
            ],
            [
              47.834498333333336,
              29.493299722222222
            ],
            [
              47.839555555555556,
              29.498306111111113
            ],
            [
              47.8395275,
              29.49916388888889
            ],
            [
              47.84000027777778,
              29.49955638888889
            ],
            [
              47.84077861111111,
              29.499583055555558
            ],
            [
              47.84663861111111,
              29.505416944444445
            ],
            [
              47.84741694444445,
              29.505416944444445
            ],
            [
              47.85077777777778,
              29.508777777777777
            ],
            [
              47.85163888888889,
              29.508749722222223
            ],
            [
              47.85325111111111,
              29.510445
            ],
            [
              47.8541175,
              29.510415833333333
            ],
            [
              47.85497083333333,
              29.5112525
            ],
            [
              47.855778055555554,
              29.51125083333333
            ],
            [
              47.858248055555556,
              29.513776666666665
            ],
            [
              47.85911,
              29.51374861111111
            ],
            [
              47.86000388888889,
              29.514582222222224
            ],
            [
              47.86078222222223,
              29.514580277777778
            ],
            [
              47.86244222222222,
              29.516251666666665
            ],
            [
              47.86330777777778,
              29.5162225
            ],
            [
              47.86500138888889,
              29.51792083333333
            ],
            [
              47.86578305555555,
              29.51788833333333
            ],
            [
              47.86658055555556,
              29.518752499999998
            ],
            [
              47.867448611111115,
              29.518723333333334
            ],
            [
              47.868251388888886,
              29.519556666666666
            ],
            [
              47.869170555555556,
              29.519556666666666
            ],
            [
              47.870778055555554,
              29.521221944444445
            ],
            [
              47.8716425,
              29.521224444444442
            ],
            [
              47.87325055555556,
              29.52288861111111
            ],
            [
              47.87411111111111,
              29.52285694444444
            ],
            [
              47.874970833333336,
              29.52372111111111
            ],
            [
              47.8766125,
              29.52372361111111
            ],
            [
              47.87741527777778,
              29.524583055555553
            ],
            [
              47.8782825,
              29.5245575
            ],
            [
              47.88077361111111,
              29.52708472222222
            ],
            [
              47.88161083333333,
              29.527056666666667
            ],
            [
              47.88202722222222,
              29.527499444444445
            ],
            [
              47.88205444444444,
              29.528308888888887
            ],
            [
              47.88327944444445,
              29.52955861111111
            ],
            [
              47.884973055555555,
              29.529556666666664
            ],
            [
              47.885777222222224,
              29.530416944444443
            ],
            [
              47.88663916666667,
              29.530388888888886
            ],
            [
              47.88744361111111,
              29.531221944444443
            ],
            [
              47.88827722222222,
              29.531221944444443
            ],
            [
              47.88916722222222,
              29.532056666666666
            ],
            [
              47.88994527777778,
              29.532028333333333
            ],
            [
              47.89244388888889,
              29.534555833333336
            ],
            [
              47.89330611111111,
              29.534555833333336
            ],
            [
              47.894110833333336,
              29.535388611111113
            ],
            [
              47.89494388888889,
              29.53536111111111
            ],
            [
              47.89663888888889,
              29.537055555555558
            ],
            [
              47.897417499999996,
              29.53702777777778
            ],
            [
              47.89830527777778,
              29.537860833333333
            ],
            [
              47.89916777777778,
              29.537916944444447
            ],
            [
              47.900776944444445,
              29.539525833333336
            ],
            [
              47.90247222222222,
              29.539555833333335
            ],
            [
              47.903277777777774,
              29.54038888888889
            ],
            [
              47.90413888888889,
              29.54044388888889
            ],
            [
              47.905832777777775,
              29.542055833333336
            ],
            [
              47.90661083333333,
              29.54208277777778
            ],
            [
              47.90830611111111,
              29.543721944444446
            ],
            [
              47.90994388888889,
              29.543749722222223
            ],
            [
              47.91081027777778,
              29.544588333333333
            ],
            [
              47.91329972222222,
              29.5445825
            ],
            [
              47.914116388888885,
              29.545415000000002
            ],
            [
              47.91575638888889,
              29.545392222222223
            ],
            [
              47.916599444444444,
              29.546224722222224
            ],
            [
              47.91748138888889,
              29.546224722222224
            ],
            [
              47.918281111111106,
              29.547069722222226
            ],
            [
              47.91914361111111,
              29.547029722222224
            ],
            [
              47.92075083333333,
              29.548717500000002
            ],
            [
              47.922443333333334,
              29.548751944444447
            ],
            [
              47.92413583333333,
              29.550364166666668
            ],
            [
              47.92491444444444,
              29.5503875
            ],
            [
              47.92580583333333,
              29.551249444444444
            ],
            [
              47.9266675,
              29.55122138888889
            ],
            [
              47.92827222222222,
              29.55291777777778
            ],
            [
              47.92914222222222,
              29.552889722222222
            ],
            [
              47.929943333333334,
              29.553721944444444
            ],
            [
              47.93078083333333,
              29.553777222222223
            ],
            [
              47.932471666666665,
              29.55538888888889
            ],
            [
              47.93324888888888,
              29.555416666666666
            ],
            [
              47.9341375,
              29.55627861111111
            ],
            [
              47.934916666666666,
              29.5562475
            ],
            [
              47.935804722222215,
              29.557082222222224
            ],
            [
              47.936636388888886,
              29.55708361111111
            ],
            [
              47.937441666666665,
              29.557916666666667
            ],
            [
              47.93830694444444,
              29.557889166666666
            ],
            [
              47.93911055555555,
              29.558721666666667
            ],
            [
              47.94083277777777,
              29.55875
            ],
            [
              47.94163722222222,
              29.55952611111111
            ],
            [
              47.94163444444444,
              29.559526944444446
            ],
            [
              47.94248083333333,
              29.5595825
            ],
            [
              47.94411083333333,
              29.561194166666667
            ],
            [
              47.94494777777778,
              29.56125138888889
            ],
            [
              47.945834166666664,
              29.562084722222224
            ],
            [
              47.94661333333333,
              29.562055555555556
            ],
            [
              47.94830472222222,
              29.56375027777778
            ],
            [
              47.949083055555555,
              29.563724166666667
            ],
            [
              47.94997138888888,
              29.564555277777778
            ],
            [
              47.950805833333334,
              29.564555833333333
            ],
            [
              47.951638888888894,
              29.56538888888889
            ],
            [
              47.95247277777778,
              29.565360833333333
            ],
            [
              47.953277222222226,
              29.566221388888888
            ],
            [
              47.954083611111116,
              29.566250555555555
            ],
            [
              47.95494305555556,
              29.567028611111112
            ],
            [
              47.955807500000006,
              29.56708111111111
            ],
            [
              47.956610000000005,
              29.56791611111111
            ],
            [
              47.95747138888889,
              29.567888888888888
            ],
            [
              47.95827916666667,
              29.5687225
            ],
            [
              47.95914027777778,
              29.568778055555555
            ],
            [
              47.959942500000004,
              29.569555277777777
            ],
            [
              47.96080611111111,
              29.569583055555555
            ],
            [
              47.96161194444445,
              29.570442222222223
            ],
            [
              47.96244361111111,
              29.57041472222222
            ],
            [
              47.96327527777778,
              29.571249444444444
            ],
            [
              47.964112500000006,
              29.571250833333334
            ],
            [
              47.964999444444445,
              29.5720825
            ],
            [
              47.966638055555556,
              29.572028055555556
            ],
            [
              47.967443055555556,
              29.57288888888889
            ],
            [
              47.96830611111111,
              29.572915833333333
            ],
            [
              47.96910916666667,
              29.573747222222224
            ],
            [
              47.969945,
              29.57374861111111
            ],
            [
              47.970778888888894,
              29.574584444444444
            ],
            [
              47.973309444444446,
              29.574529444444444
            ],
            [
              47.974139722222226,
              29.575363055555556
            ],
            [
              47.97577888888889,
              29.575388611111112
            ],
            [
              47.97658083333334,
              29.5762225
            ],
            [
              47.97991694444445,
              29.57619611111111
            ],
            [
              47.98080388888889,
              29.577054444444443
            ],
            [
              47.98500361111111,
              29.577055277777777
            ],
            [
              47.98580416666667,
              29.57791472222222
            ],
            [
              47.990775,
              29.577915
            ],
            [
              47.99157805555556,
              29.578743333333332
            ],
            [
              47.999138888888886,
              29.57874888888889
            ],
            [
              48.00000027777778,
              29.577917499999998
            ],
            [
              48.00080638888889,
              29.577943333333334
            ],
            [
              48.00163888888889,
              29.5787775
            ],
            [
              48.018280555555556,
              29.57875027777778
            ],
            [
              48.019081666666665,
              29.577890555555555
            ],
            [
              48.03158416666667,
              29.57794527777778
            ],
            [
              48.032471666666666,
              29.577110833333332
            ],
            [
              48.03575083333333,
              29.577055833333333
            ],
            [
              48.036636944444446,
              29.576223333333335
            ],
            [
              48.03997111111111,
              29.576251111111112
            ],
            [
              48.04078083333333,
              29.575413333333334
            ],
            [
              48.04411583333333,
              29.575415833333334
            ],
            [
              48.04499944444444,
              29.574585555555554
            ],
            [
              48.04833055555555,
              29.574610555555555
            ],
            [
              48.04913888888888,
              29.57375111111111
            ],
            [
              48.05164138888889,
              29.57375111111111
            ],
            [
              48.05243944444444,
              29.57291777777778
            ],
            [
              48.05413833333333,
              29.57294472222222
            ],
            [
              48.0549725,
              29.572111666666668
            ],
            [
              48.05830638888889,
              29.572079444444444
            ],
            [
              48.059108055555555,
              29.571225555555554
            ],
            [
              48.06160722222222,
              29.571219166666666
            ],
            [
              48.062468055555556,
              29.5704425
            ],
            [
              48.06580694444444,
              29.570471666666666
            ],
            [
              48.06663777777778,
              29.569611388888887
            ],
            [
              48.06910861111111,
              29.569553888888887
            ],
            [
              48.0700025,
              29.56872138888889
            ],
            [
              48.07411305555556,
              29.56875
            ],
            [
              48.07495388888889,
              29.567920277777777
            ],
            [
              48.07827833333334,
              29.567920277777777
            ],
            [
              48.07909055555556,
              29.567084444444443
            ],
            [
              48.08153222222222,
              29.567084444444443
            ],
            [
              47.86666666666667,
              29.948333333333334
            ],
            [
              47.699999722222216,
              30.060833333333335
            ],
            [
              47.57888888888889,
              30.050555555555555
            ],
            [
              47.69972222222222,
              29.42388888888889
            ]
          ]
        ]
      }
    },
    {
      "type": "Feature",
      "properties": {
        "name": "OK-R08",
        "type": "RESTRICTED",
        "lowerFL": 0,
        "upperFL": 150
      },
      "geometry": {
        "type": "Polygon",
        "coordinates": [
          [
            [
              47.666422777777775,
              29.433249166666666
            ],
            [
              47.67332527777778,
              29.432723055555556
            ],
            [
              47.680076666666665,
              29.431365
            ],
            [
              47.686544999999995,
              29.42920138888889
            ],
            [
              47.69260444444444,
              29.426274722222225
            ],
            [
              47.69813666666666,
              29.422641666666667
            ],
            [
              47.70303416666667,
              29.418373055555556
            ],
            [
              47.70720166666667,
              29.413552222222222
            ],
            [
              47.71055777777778,
              29.408273055555554
            ],
            [
              47.71303777777778,
              29.402638333333332
            ],
            [
              47.71459305555556,
              29.396757777777776
            ],
            [
              47.71519388888889,
              29.390745555555554
            ],
            [
              47.714828611111116,
              29.384719444444443
            ],
            [
              47.713504444444446,
              29.378795833333335
            ],
            [
              47.71124694444445,
              29.373090555555557
            ],
            [
              47.70810083333333,
              29.36771472222222
            ],
            [
              47.704127222222226,
              29.362772500000002
            ],
            [
              47.69940333333333,
              29.35836027777778
            ],
            [
              47.694021388888885,
              29.35456361111111
            ],
            [
              47.68808583333333,
              29.351456666666667
            ],
            [
              47.68171222222222,
              29.34909972222222
            ],
            [
              47.67502472222222,
              29.347538333333333
            ],
            [
              47.66815305555555,
              29.346803333333334
            ],
            [
              47.661230833333335,
              29.34690861111111
            ],
            [
              47.65439277777778,
              29.347852222222222
            ],
            [
              47.647771666666664,
              29.34961583333333
            ],
            [
              47.64149638888889,
              29.35216527777778
            ],
            [
              47.635688888888886,
              29.355450833333336
            ],
            [
              47.63046194444445,
              29.35940888888889
            ],
            [
              47.6259175,
              29.363961944444444
            ],
            [
              47.622144166666665,
              29.369021944444444
            ],
            [
              47.619215277777776,
              29.374490277777777
            ],
            [
              47.61718777777778,
              29.380260555555555
            ],
            [
              47.61610138888889,
              29.386220833333333
            ],
            [
              47.6159775,
              29.392254722222223
            ],
            [
              47.616818888888886,
              29.398244722222223
            ],
            [
              47.618608888888886,
              29.404074444444444
            ],
            [
              47.621313055555554,
              29.409630277777776
            ],
            [
              47.62487888888889,
              29.414804444444442
            ],
            [
              47.62923722222222,
              29.419495555555557
            ],
            [
              47.634302777777776,
              29.4236125
            ],
            [
              47.63997722222222,
              29.427075000000002
            ],
            [
              47.64615027777778,
              29.429815833333336
            ],
            [
              47.652701388888886,
              29.43178138888889
            ],
            [
              47.659503055555554,
              29.432933333333335
            ],
            [
              47.666422777777775,
              29.433249166666666
            ],
            [
              47.666422777777775,
              29.433249166666666
            ]
          ]
        ]
      }
    },
    {
      "type": "Feature",
      "properties": {
        "name": "OK-D04",
        "type": "KAZIMAH",
        "lowerFL": 0,
        "upperFL": 20
      },
      "geometry": {
        "type": "Polygon",
        "coordinates": [
          [
            [
              47.78416555555555,
              29.339166388888888
            ],
            [
              47.8175,
              29.353055833333336
            ],
            [
              47.823055000000004,
              29.464164722222222
            ],
            [
              47.82,
              29.464463055555555
            ],
            [
              47.808755,
              29.464111388888888
            ],
            [
              47.80865083333333,
              29.464107777777777
            ],
            [
              47.79714555555555,
              29.46305111111111
            ],
            [
              47.78569472222222,
              29.46129472222222
            ],
            [
              47.77451472222222,
              29.45885861111111
            ],
            [
              47.76344916666667,
              29.455730833333334
            ],
            [
              47.752675555555555,
              29.45193361111111
            ],
            [
              47.74301666666667,
              29.447826666666668
            ],
            [
              47.742039444444444,
              29.447398333333332
            ],
            [
              47.73999,
              29.44636
            ],
            [
              47.736423055555555,
              29.444557500000002
            ],
            [
              47.73220888888889,
              29.442446944444445
            ],
            [
              47.73189583333333,
              29.44226
            ],
            [
              47.72689472222223,
              29.439321944444444
            ],
            [
              47.722590833333335,
              29.436786944444446
            ],
            [
              47.71784777777778,
              29.433553888888888
            ],
            [
              47.71508111111111,
              29.431665000000002
            ],
            [
              47.71344222222223,
              29.430544166666667
            ],
            [
              47.71055194444445,
              29.42828527777778
            ],
            [
              47.704879444444444,
              29.423818333333333
            ],
            [
              47.70088444444445,
              29.420230555555555
            ],
            [
              47.69985,
              29.419278055555555
            ],
            [
              47.69888805555555,
              29.418409444444446
            ],
            [
              47.69784277777777,
              29.417460833333333
            ],
            [
              47.696907499999995,
              29.416607499999998
            ],
            [
              47.6954375,
              29.415110555555554
            ],
            [
              47.6932425,
              29.41282083333333
            ],
            [
              47.690261388888885,
              29.409720277777776
            ],
            [
              47.68934722222222,
              29.408765
            ],
            [
              47.68581472222222,
              29.404511666666664
            ],
            [
              47.68258611111111,
              29.400613888888888
            ],
            [
              47.68141222222222,
              29.3990275
            ],
            [
              47.67984527777777,
              29.3968175
            ],
            [
              47.78416555555555,
              29.339166388888888
            ]
          ]
        ]
      }
    },
    {
      "type": "Feature",
      "properties": {
        "name": "OK-D06",
        "type": "A.F.",
        "lowerFL": 0,
        "upperFL": 20
      },
      "geometry": {
        "type": "Polygon",
        "coordinates": [
          [
            [
              46.9925,
              29.278055555555554
            ],
            [
              47.11333333333334,
              29.278055555555554
            ],
            [
              47.11333333333334,
              29.379444444444445
            ],
            [
              46.9925,
              29.379444444444445
            ],
            [
              46.9925,
              29.278055555555554
            ],
            [
              46.9925,
              29.278055555555554
            ]
          ]
        ]
      }
    },
    {
      "type": "Feature",
      "properties": {
        "name": "OK-D10",
        "type": "DANGER",
        "lowerFL": 0,
        "upperFL": 999
      },
      "geometry": {
        "type": "Polygon",
        "coordinates": [
          [
            [
              47.31194444444444,
              29.503055555555555
            ],
            [
              47.228611111111114,
              29.503055555555555
            ],
            [
              47.15083333333333,
              29.586388888888887
            ],
            [
              47.15083333333333,
              29.691944444444445
            ],
            [
              47.25083333333333,
              29.71972222222222
            ],
            [
              47.3675,
              29.628055555555555
            ],
            [
              47.3675,
              29.56222222222222
            ],
            [
              47.31194444444444,
              29.503055555555555
            ],
            [
              47.31194444444444,
              29.503055555555555
            ]
          ]
        ]
      }
    }
  ]
}