{
  "type": "FeatureCollection",
  "features": [
    {
      "type": "Feature",
      "properties": {
        "id": "RP-T1",
        "name": "RP-T1",
        "type": "Training Area",
        "upper": "3000 FT / SFC",
        "upperFL": 30,
        "lowerFL": 0,
        "remarks": "Active HJ daily. Exclusively for light aircraft with speed of 150 MPH (130 KTS) or less.",
        "fullName": "CAMBA"
      },
      "geometry": {
        "type": "Polygon",
        "coordinates": [
          [
            [
              121.1775,
              14.308056
            ],
            [
              121.264722,
              14.424444
            ],
            [
              121.501389,
              14.352778
            ],
            [
              121.501389,
              14.098611
            ],
            [
              121.17,
              14.098611
            ],
            [
              121.226389,
              14.253333
            ],
            [
              121.1775,
              14.308056
            ]
          ]
        ]
      }
    },
    {
      "type": "Feature",
      "properties": {
        "id": "RP-T2",
        "name": "RP-T2",
        "type": "Training Area",
        "upper": "3000 FT / SFC",
        "upperFL": 30,
        "lowerFL": 0,
        "remarks": "Active HJ daily. Exclusively for light aircraft with speed of 150 MPH (130 KTS) or less.",
        "fullName": "CARMO"
      },
      "geometry": {
        "type": "Polygon",
        "coordinates": [
          [
            [
              121.051944,
              14.258611
            ],
            [
              121.1775,
              14.308056
            ],
            [
              121.226389,
              14.253333
            ],
            [
              121.159722,
              14.070833
            ],
            [
              121.101389,
              14.054167
            ],
            [
              121.051944,
              14.258611
            ]
          ]
        ]
      }
    },
    {
      "type": "Feature",
      "properties": {
        "id": "RP-T4",
        "name": "RP-T4",
        "type": "Training Area",
        "upper": "2500 FT / SFC",
        "upperFL": 25,
        "lowerFL": 0,
        "remarks": "Active HJ daily. Exclusively for light aircraft with speed of 150 MPH (130 KTS) or less.",
        "fullName": "INDAN"
      },
      "geometry": {
        "type": "Polygon",
        "coordinates": [
          [
            [
              120.919167,
              14.277778
            ],
            [
              121.051944,
              14.258611
            ],
            [
              121.101389,
              14.054167
            ],
            [
              121.033889,
              14.0375
            ],
            [
              120.875,
              14.172778
            ],
            [
              120.919167,
              14.277778
            ]
          ]
        ]
      }
    },
    {
      "type": "Feature",
      "properties": {
        "id": "RP-T5",
        "name": "RP-T5",
        "type": "Training Area",
        "upper": "2500 FT / SFC",
        "upperFL": 25,
        "lowerFL": 0,
        "remarks": "Active HJ daily. Exclusively for light aircraft with speed of 150 MPH (130 KTS) or less.",
        "fullName": "NASUGBU"
      },
      "geometry": {
        "type": "Polygon",
        "coordinates": [
          [
            [
              120.798889,
              14.381944
            ],
            [
              120.919167,
              14.277778
            ],
            [
              120.875,
              14.172778
            ],
            [
              120.456944,
              14.181944
            ],
            [
              120.798889,
              14.381944
            ]
          ]
        ]
      }
    },
    {
      "type": "Feature",
      "properties": {
        "id": "RP-T6",
        "name": "RP-T6",
        "type": "Training Area",
        "upper": "3000 FT / SFC",
        "upperFL": 30,
        "lowerFL": 0,
        "remarks": "Active HJ daily. Exclusively for light aircraft with speed of 150 MPH (130 KTS) or less.",
        "shape": "circle",
        "radius_nm": 10,
        "fullName": "PLARIDEL"
      },
      "geometry": {
        "type": "Polygon",
        "coordinates": [
          [
            [
              120.853056,
              15.058334
            ],
            [
              120.86996,
              15.057531
            ],
            [
              120.886701,
              15.055131
            ],
            [
              120.903118,
              15.051157
            ],
            [
              120.919053,
              15.045647
            ],
            [
              120.934353,
              15.038654
            ],
            [
              120.948869,
              15.030245
            ],
            [
              120.962463,
              15.020502
            ],
            [
              120.975003,
              15.009518
            ],
            [
              120.986369,
              14.997399
            ],
            [
              120.99645,
              14.984262
            ],
            [
              121.005151,
              14.970233
            ],
            [
              121.012387,
              14.955448
            ],
            [
              121.018089,
              14.940048
            ],
            [
              121.022201,
              14.924182
            ],
            [
              121.024685,
              14.908003
            ],
            [
              121.025515,
              14.891667
            ],
            [
              121.024685,
              14.875331
            ],
            [
              121.022201,
              14.859152
            ],
            [
              121.018089,
              14.843286
            ],
            [
              121.012387,
              14.827886
            ],
            [
              121.005151,
              14.813101
            ],
            [
              120.99645,
              14.799072
            ],
            [
              120.986369,
              14.785935
            ],
            [
              120.975003,
              14.773816
            ],
            [
              120.962463,
              14.762832
            ],
            [
              120.948869,
              14.753089
            ],
            [
              120.934353,
              14.74468
            ],
            [
              120.919053,
              14.737687
            ],
            [
              120.903118,
              14.732177
            ],
            [
              120.886701,
              14.728203
            ],
            [
              120.86996,
              14.725803
            ],
            [
              120.853056,
              14.725
            ],
            [
              120.836152,
              14.725803
            ],
            [
              120.819411,
              14.728203
            ],
            [
              120.802994,
              14.732177
            ],
            [
              120.787059,
              14.737687
            ],
            [
              120.771759,
              14.74468
            ],
            [
              120.757243,
              14.753089
            ],
            [
              120.743649,
              14.762832
            ],
            [
              120.731109,
              14.773816
            ],
            [
              120.719743,
              14.785935
            ],
            [
              120.709662,
              14.799072
            ],
            [
              120.700961,
              14.813101
            ],
            [
              120.693725,
              14.827886
            ],
            [
              120.688023,
              14.843286
            ],
            [
              120.683911,
              14.859152
            ],
            [
              120.681427,
              14.875331
            ],
            [
              120.680597,
              14.891667
            ],
            [
              120.681427,
              14.908003
            ],
            [
              120.683911,
              14.924182
            ],
            [
              120.688023,
              14.940048
            ],
            [
              120.693725,
              14.955448
            ],
            [
              120.700961,
              14.970233
            ],
            [
              120.709662,
              14.984262
            ],
            [
              120.719743,
              14.997399
            ],
            [
              120.731109,
              15.009518
            ],
            [
              120.743649,
              15.020502
            ],
            [
              120.757243,
              15.030245
            ],
            [
              120.771759,
              15.038654
            ],
            [
              120.787059,
              15.045647
            ],
            [
              120.802994,
              15.051157
            ],
            [
              120.819411,
              15.055131
            ],
            [
              120.836152,
              15.057531
            ],
            [
              120.853056,
              15.058334
            ]
          ]
        ]
      }
    },
    {
      "type": "Feature",
      "properties": {
        "id": "RP-T10",
        "name": "RP-T10",
        "type": "Training Area",
        "upper": "FL300 / FL210",
        "upperFL": 300,
        "lowerFL": 210,
        "remarks": "Jet Training Area",
        "fullName": "JET TRAINING AREA"
      },
      "geometry": {
        "type": "Polygon",
        "coordinates": [
          [
            [
              122.895278,
              14.428611
            ],
            [
              123.909722,
              14.263333
            ],
            [
              123.906111,
              13.331111
            ],
            [
              122.895278,
              14.428611
            ]
          ]
        ]
      }
    },
    {
      "type": "Feature",
      "properties": {
        "id": "RP-T15",
        "name": "RP-T15",
        "type": "Training Area",
        "upper": "5000 FT / SFC",
        "upperFL": 50,
        "lowerFL": 0,
        "remarks": "Military maneuvering exercises.",
        "fullName": "MANILA BAY (SANGLEY AREA)"
      },
      "geometry": {
        "type": "Polygon",
        "coordinates": [
          [
            [
              120.901389,
              14.498611
            ],
            [
              120.801389,
              14.698611
            ],
            [
              120.706389,
              14.563611
            ],
            [
              120.901389,
              14.498611
            ]
          ]
        ]
      }
    },
    {
      "type": "Feature",
      "properties": {
        "id": "RP-T15A",
        "name": "RP-T15A",
        "type": "Training Area",
        "upper": "8000 FT / SFC",
        "upperFL": 80,
        "lowerFL": 0,
        "remarks": "Military maneuvering exercises.",
        "fullName": "MANILA BAY"
      },
      "geometry": {
        "type": "Polygon",
        "coordinates": [
          [
            [
              120.901389,
              14.498611
            ],
            [
              120.439722,
              14.351944
            ],
            [
              120.504722,
              14.476944
            ],
            [
              120.706389,
              14.476944
            ],
            [
              120.706389,
              14.563611
            ],
            [
              120.901389,
              14.498611
            ]
          ]
        ]
      }
    },
    {
      "type": "Feature",
      "properties": {
        "id": "RP-T16",
        "name": "RP-T16",
        "type": "Training Area",
        "upper": "FL240 / 6000 FT ALT",
        "upperFL": 240,
        "lowerFL": 60,
        "remarks": "Jet qualification course.",
        "fullName": "MACTAN"
      },
      "geometry": {
        "type": "Polygon",
        "coordinates": [
          [
            [
              124.371389,
              10.505556
            ],
            [
              125.054722,
              10.838611
            ],
            [
              125.173056,
              10.220556
            ],
            [
              124.414722,
              10.285556
            ],
            [
              124.371389,
              10.505556
            ]
          ]
        ]
      }
    },
    {
      "type": "Feature",
      "properties": {
        "id": "RP-T17",
        "name": "RP-T17",
        "type": "Training Area",
        "upper": "FL150 / SFC",
        "upperFL": 150,
        "lowerFL": 0,
        "remarks": "Aircrew training exercises.",
        "fullName": "RP-T17"
      },
      "geometry": {
        "type": "Polygon",
        "coordinates": [
          [
            [
              120.736389,
              13.725278
            ],
            [
              120.934722,
              13.680278
            ],
            [
              120.934722,
              13.345278
            ],
            [
              120.591389,
              13.426944
            ],
            [
              120.736389,
              13.725278
            ]
          ]
        ]
      }
    },
    {
      "type": "Feature",
      "properties": {
        "id": "RP-T18",
        "name": "RP-T18",
        "type": "Training Area",
        "upper": "FL200 / SFC",
        "upperFL": 200,
        "lowerFL": 0,
        "remarks": "Military maneuvering exercises.",
        "fullName": "RP-T18"
      },
      "geometry": {
        "type": "Polygon",
        "coordinates": [
          [
            [
              121.106389,
              13.511944
            ],
            [
              121.229722,
              13.531944
            ],
            [
              121.348056,
              13.218611
            ],
            [
              121.106389,
              13.176944
            ],
            [
              121.106389,
              13.511944
            ]
          ]
        ]
      }
    },
    {
      "type": "Feature",
      "properties": {
        "id": "RP-T19",
        "name": "RP-T19",
        "type": "Training Area",
        "upper": "3000 FT ALT / SFC",
        "upperFL": 30,
        "lowerFL": 0,
        "remarks": "Active HJ Daily except when Corridor 1, IMTA 3 and IMTA 4 are active. Exclusively for aircraft with speed of 150 MPH (130 KTS) or less.",
        "fullName": "SELASOR TANGO"
      },
      "geometry": {
        "type": "Polygon",
        "coordinates": [
          [
            [
              120.793056,
              15.456667
            ],
            [
              120.938056,
              15.423333
            ],
            [
              121.001389,
              15.351667
            ],
            [
              121.043056,
              15.165
            ],
            [
              120.826389,
              15.093333
            ],
            [
              120.776389,
              15.148333
            ],
            [
              120.793056,
              15.456667
            ]
          ]
        ]
      }
    },
    {
      "type": "Feature",
      "properties": {
        "id": "RP-T20",
        "name": "RP-T20",
        "type": "Training Area",
        "upper": "5000 FT ALT / SFC",
        "upperFL": 50,
        "lowerFL": 0,
        "remarks": "Active HJ Daily. Exclusively for aircraft with speed of 150 MPH (130 KTS) or less.",
        "shape": "circle",
        "radius_nm": 5,
        "fullName": "BINALONAN"
      },
      "geometry": {
        "type": "Polygon",
        "coordinates": [
          [
            [
              120.580556,
              16.136944
            ],
            [
              120.589056,
              16.136543
            ],
            [
              120.597473,
              16.135343
            ],
            [
              120.605728,
              16.133356
            ],
            [
              120.61374,
              16.130601
            ],
            [
              120.621433,
              16.127104
            ],
            [
              120.628732,
              16.1229
            ],
            [
              120.635567,
              16.118029
            ],
            [
              120.641873,
              16.112537
            ],
            [
              120.647588,
              16.106477
            ],
            [
              120.652657,
              16.099909
            ],
            [
              120.657032,
              16.092894
            ],
            [
              120.66067,
              16.085501
            ],
            [
              120.663537,
              16.077801
            ],
            [
              120.665605,
              16.069869
            ],
            [
              120.666853,
              16.061779
            ],
            [
              120.667271,
              16.053611
            ],
            [
              120.666853,
              16.045443
            ],
            [
              120.665605,
              16.037353
            ],
            [
              120.663537,
              16.029421
            ],
            [
              120.66067,
              16.021721
            ],
            [
              120.657032,
              16.014328
            ],
            [
              120.652657,
              16.007313
            ],
            [
              120.647588,
              16.000745
            ],
            [
              120.641873,
              15.994685
            ],
            [
              120.635567,
              15.989193
            ],
            [
              120.628732,
              15.984322
            ],
            [
              120.621433,
              15.980118
            ],
            [
              120.61374,
              15.976621
            ],
            [
              120.605728,
              15.973866
            ],
            [
              120.597473,
              15.971879
            ],
            [
              120.589056,
              15.970679
            ],
            [
              120.580556,
              15.970278
            ],
            [
              120.572056,
              15.970679
            ],
            [
              120.563639,
              15.971879
            ],
            [
              120.555384,
              15.973866
            ],
            [
              120.547372,
              15.976621
            ],
            [
              120.539679,
              15.980118
            ],
            [
              120.53238,
              15.984322
            ],
            [
              120.525545,
              15.989193
            ],
            [
              120.519239,
              15.994685
            ],
            [
              120.513524,
              16.000745
            ],
            [
              120.508455,
              16.007313
            ],
            [
              120.50408,
              16.014328
            ],
            [
              120.500442,
              16.021721
            ],
            [
              120.497575,
              16.029421
            ],
            [
              120.495507,
              16.037353
            ],
            [
              120.494259,
              16.045443
            ],
            [
              120.493841,
              16.053611
            ],
            [
              120.494259,
              16.061779
            ],
            [
              120.495507,
              16.069869
            ],
            [
              120.497575,
              16.077801
            ],
            [
              120.500442,
              16.085501
            ],
            [
              120.50408,
              16.092894
            ],
            [
              120.508455,
              16.099909
            ],
            [
              120.513524,
              16.106477
            ],
            [
              120.519239,
              16.112537
            ],
            [
              120.525545,
              16.118029
            ],
            [
              120.53238,
              16.1229
            ],
            [
              120.539679,
              16.127104
            ],
            [
              120.547372,
              16.130601
            ],
            [
              120.555384,
              16.133356
            ],
            [
              120.563639,
              16.135343
            ],
            [
              120.572056,
              16.136543
            ],
            [
              120.580556,
              16.136944
            ]
          ]
        ]
      }
    },
    {
      "type": "Feature",
      "properties": {
        "id": "RP-T21",
        "name": "RP-T21",
        "type": "Training Area",
        "upper": "3000 FT ALT / SFC",
        "upperFL": 30,
        "lowerFL": 0,
        "remarks": "VFR Training Area. Active HJ Daily. Exclusively for light aircraft with speed of 150 MPH (130 KTS) or less.",
        "shape": "circle",
        "radius_nm": 5,
        "fullName": "SAN FABIAN"
      },
      "geometry": {
        "type": "Polygon",
        "coordinates": [
          [
            [
              120.426111,
              16.256389
            ],
            [
              120.434616,
              16.255988
            ],
            [
              120.443038,
              16.254788
            ],
            [
              120.451298,
              16.252801
            ],
            [
              120.459315,
              16.250046
            ],
            [
              120.467013,
              16.246549
            ],
            [
              120.474316,
              16.242345
            ],
            [
              120.481156,
              16.237474
            ],
            [
              120.487465,
              16.231982
            ],
            [
              120.493183,
              16.225922
            ],
            [
              120.498255,
              16.219354
            ],
            [
              120.502633,
              16.212339
            ],
            [
              120.506273,
              16.204946
            ],
            [
              120.509142,
              16.197246
            ],
            [
              120.511211,
              16.189314
            ],
            [
              120.51246,
              16.181224
            ],
            [
              120.512878,
              16.173056
            ],
            [
              120.51246,
              16.164888
            ],
            [
              120.511211,
              16.156798
            ],
            [
              120.509142,
              16.148866
            ],
            [
              120.506273,
              16.141166
            ],
            [
              120.502633,
              16.133773
            ],
            [
              120.498255,
              16.126758
            ],
            [
              120.493183,
              16.12019
            ],
            [
              120.487465,
              16.11413
            ],
            [
              120.481156,
              16.108638
            ],
            [
              120.474316,
              16.103767
            ],
            [
              120.467013,
              16.099563
            ],
            [
              120.459315,
              16.096066
            ],
            [
              120.451298,
              16.093311
            ],
            [
              120.443038,
              16.091324
            ],
            [
              120.434616,
              16.090124
            ],
            [
              120.426111,
              16.089723
            ],
            [
              120.417606,
              16.090124
            ],
            [
              120.409184,
              16.091324
            ],
            [
              120.400924,
              16.093311
            ],
            [
              120.392907,
              16.096066
            ],
            [
              120.385209,
              16.099563
            ],
            [
              120.377906,
              16.103767
            ],
            [
              120.371066,
              16.108638
            ],
            [
              120.364757,
              16.11413
            ],
            [
              120.359039,
              16.12019
            ],
            [
              120.353967,
              16.126758
            ],
            [
              120.349589,
              16.133773
            ],
            [
              120.345949,
              16.141166
            ],
            [
              120.34308,
              16.148866
            ],
            [
              120.341011,
              16.156798
            ],
            [
              120.339762,
              16.164888
            ],
            [
              120.339344,
              16.173056
            ],
            [
              120.339762,
              16.181224
            ],
            [
              120.341011,
              16.189314
            ],
            [
              120.34308,
              16.197246
            ],
            [
              120.345949,
              16.204946
            ],
            [
              120.349589,
              16.212339
            ],
            [
              120.353967,
              16.219354
            ],
            [
              120.359039,
              16.225922
            ],
            [
              120.364757,
              16.231982
            ],
            [
              120.371066,
              16.237474
            ],
            [
              120.377906,
              16.242345
            ],
            [
              120.385209,
              16.246549
            ],
            [
              120.392907,
              16.250046
            ],
            [
              120.400924,
              16.252801
            ],
            [
              120.409184,
              16.254788
            ],
            [
              120.417606,
              16.255988
            ],
            [
              120.426111,
              16.256389
            ]
          ]
        ]
      }
    },
    {
      "type": "Feature",
      "properties": {
        "id": "RP-T22",
        "name": "RP-T22",
        "type": "Training Area",
        "upper": "3000 FT ALT / SFC",
        "upperFL": 30,
        "lowerFL": 0,
        "remarks": "VFR Training Area. Active HJ Daily. Exclusively for light aircraft with speed of 150 MPH (130 KTS) or less.",
        "shape": "circle",
        "radius_nm": 4,
        "fullName": "AGOO"
      },
      "geometry": {
        "type": "Polygon",
        "coordinates": [
          [
            [
              120.355,
              16.424445
            ],
            [
              120.36181,
              16.424124
            ],
            [
              120.368555,
              16.423164
            ],
            [
              120.375169,
              16.421574
            ],
            [
              120.381588,
              16.41937
            ],
            [
              120.387752,
              16.416573
            ],
            [
              120.3936,
              16.413209
            ],
            [
              120.399077,
              16.409312
            ],
            [
              120.404129,
              16.404918
            ],
            [
              120.408708,
              16.400071
            ],
            [
              120.41277,
              16.394816
            ],
            [
              120.416275,
              16.389204
            ],
            [
              120.41919,
              16.38329
            ],
            [
              120.421487,
              16.37713
            ],
            [
              120.423144,
              16.370784
            ],
            [
              120.424144,
              16.364312
            ],
            [
              120.424479,
              16.357778
            ],
            [
              120.424144,
              16.351244
            ],
            [
              120.423144,
              16.344772
            ],
            [
              120.421487,
              16.338426
            ],
            [
              120.41919,
              16.332266
            ],
            [
              120.416275,
              16.326352
            ],
            [
              120.41277,
              16.32074
            ],
            [
              120.408708,
              16.315485
            ],
            [
              120.404129,
              16.310638
            ],
            [
              120.399077,
              16.306244
            ],
            [
              120.3936,
              16.302347
            ],
            [
              120.387752,
              16.298983
            ],
            [
              120.381588,
              16.296186
            ],
            [
              120.375169,
              16.293982
            ],
            [
              120.368555,
              16.292392
            ],
            [
              120.36181,
              16.291432
            ],
            [
              120.355,
              16.291111
            ],
            [
              120.34819,
              16.291432
            ],
            [
              120.341445,
              16.292392
            ],
            [
              120.334831,
              16.293982
            ],
            [
              120.328412,
              16.296186
            ],
            [
              120.322248,
              16.298983
            ],
            [
              120.3164,
              16.302347
            ],
            [
              120.310923,
              16.306244
            ],
            [
              120.305871,
              16.310638
            ],
            [
              120.301292,
              16.315485
            ],
            [
              120.29723,
              16.32074
            ],
            [
              120.293725,
              16.326352
            ],
            [
              120.29081,
              16.332266
            ],
            [
              120.288513,
              16.338426
            ],
            [
              120.286856,
              16.344772
            ],
            [
              120.285856,
              16.351244
            ],
            [
              120.285521,
              16.357778
            ],
            [
              120.285856,
              16.364312
            ],
            [
              120.286856,
              16.370784
            ],
            [
              120.288513,
              16.37713
            ],
            [
              120.29081,
              16.38329
            ],
            [
              120.293725,
              16.389204
            ],
            [
              120.29723,
              16.394816
            ],
            [
              120.301292,
              16.400071
            ],
            [
              120.305871,
              16.404918
            ],
            [
              120.310923,
              16.409312
            ],
            [
              120.3164,
              16.413209
            ],
            [
              120.322248,
              16.416573
            ],
            [
              120.328412,
              16.41937
            ],
            [
              120.334831,
              16.421574
            ],
            [
              120.341445,
              16.423164
            ],
            [
              120.34819,
              16.424124
            ],
            [
              120.355,
              16.424445
            ]
          ]
        ]
      }
    },
    {
      "type": "Feature",
      "properties": {
        "id": "RP-T23",
        "name": "RP-T23",
        "type": "Training Area",
        "upper": "3000 FT ALT / SFC",
        "upperFL": 30,
        "lowerFL": 0,
        "remarks": "VFR Training Area. Active HJ Daily. Exclusively for light aircraft with speed of 150 MPH (130 KTS) or less.",
        "shape": "circle",
        "radius_nm": 5,
        "fullName": "TAGUDIN"
      },
      "geometry": {
        "type": "Polygon",
        "coordinates": [
          [
            [
              120.415833,
              16.991111
            ],
            [
              120.42437,
              16.99071
            ],
            [
              120.432825,
              16.98951
            ],
            [
              120.441116,
              16.987523
            ],
            [
              120.449164,
              16.984768
            ],
            [
              120.456891,
              16.981271
            ],
            [
              120.464222,
              16.977067
            ],
            [
              120.471088,
              16.972196
            ],
            [
              120.477421,
              16.966704
            ],
            [
              120.483161,
              16.960644
            ],
            [
              120.488253,
              16.954076
            ],
            [
              120.492647,
              16.947061
            ],
            [
              120.496301,
              16.939668
            ],
            [
              120.499181,
              16.931968
            ],
            [
              120.501258,
              16.924036
            ],
            [
              120.502512,
              16.915946
            ],
            [
              120.502931,
              16.907778
            ],
            [
              120.502512,
              16.89961
            ],
            [
              120.501258,
              16.89152
            ],
            [
              120.499181,
              16.883588
            ],
            [
              120.496301,
              16.875888
            ],
            [
              120.492647,
              16.868495
            ],
            [
              120.488253,
              16.86148
            ],
            [
              120.483161,
              16.854912
            ],
            [
              120.477421,
              16.848852
            ],
            [
              120.471088,
              16.84336
            ],
            [
              120.464222,
              16.838489
            ],
            [
              120.456891,
              16.834285
            ],
            [
              120.449164,
              16.830788
            ],
            [
              120.441116,
              16.828033
            ],
            [
              120.432825,
              16.826046
            ],
            [
              120.42437,
              16.824846
            ],
            [
              120.415833,
              16.824445
            ],
            [
              120.407296,
              16.824846
            ],
            [
              120.398841,
              16.826046
            ],
            [
              120.39055,
              16.828033
            ],
            [
              120.382502,
              16.830788
            ],
            [
              120.374775,
              16.834285
            ],
            [
              120.367444,
              16.838489
            ],
            [
              120.360578,
              16.84336
            ],
            [
              120.354245,
              16.848852
            ],
            [
              120.348505,
              16.854912
            ],
            [
              120.343413,
              16.86148
            ],
            [
              120.339019,
              16.868495
            ],
            [
              120.335365,
              16.875888
            ],
            [
              120.332485,
              16.883588
            ],
            [
              120.330408,
              16.89152
            ],
            [
              120.329154,
              16.89961
            ],
            [
              120.328735,
              16.907778
            ],
            [
              120.329154,
              16.915946
            ],
            [
              120.330408,
              16.924036
            ],
            [
              120.332485,
              16.931968
            ],
            [
              120.335365,
              16.939668
            ],
            [
              120.339019,
              16.947061
            ],
            [
              120.343413,
              16.954076
            ],
            [
              120.348505,
              16.960644
            ],
            [
              120.354245,
              16.966704
            ],
            [
              120.360578,
              16.972196
            ],
            [
              120.367444,
              16.977067
            ],
            [
              120.374775,
              16.981271
            ],
            [
              120.382502,
              16.984768
            ],
            [
              120.39055,
              16.987523
            ],
            [
              120.398841,
              16.98951
            ],
            [
              120.407296,
              16.99071
            ],
            [
              120.415833,
              16.991111
            ]
          ]
        ]
      }
    },
    {
      "type": "Feature",
      "properties": {
        "id": "RP-T24",
        "name": "RP-T24",
        "type": "Training Area",
        "upper": "3000 FT ALT / SFC",
        "upperFL": 30,
        "lowerFL": 0,
        "remarks": "VFR Training Area. Active HJ Daily. Exclusively for light aircraft with speed of 150 MPH (130 KTS) or less.",
        "shape": "circle",
        "radius_nm": 5,
        "fullName": "CANDON"
      },
      "geometry": {
        "type": "Polygon",
        "coordinates": [
          [
            [
              120.451667,
              17.248611
            ],
            [
              120.460216,
              17.24821
            ],
            [
              120.468682,
              17.24701
            ],
            [
              120.476985,
              17.245023
            ],
            [
              120.485044,
              17.242268
            ],
            [
              120.492781,
              17.238771
            ],
            [
              120.500123,
              17.234567
            ],
            [
              120.506998,
              17.229696
            ],
            [
              120.51334,
              17.224204
            ],
            [
              120.519088,
              17.218144
            ],
            [
              120.524186,
              17.211576
            ],
            [
              120.528587,
              17.204561
            ],
            [
              120.532246,
              17.197168
            ],
            [
              120.53513,
              17.189468
            ],
            [
              120.537209,
              17.181536
            ],
            [
              120.538465,
              17.173446
            ],
            [
              120.538885,
              17.165278
            ],
            [
              120.538465,
              17.15711
            ],
            [
              120.537209,
              17.14902
            ],
            [
              120.53513,
              17.141088
            ],
            [
              120.532246,
              17.133388
            ],
            [
              120.528587,
              17.125995
            ],
            [
              120.524186,
              17.11898
            ],
            [
              120.519088,
              17.112412
            ],
            [
              120.51334,
              17.106352
            ],
            [
              120.506998,
              17.10086
            ],
            [
              120.500123,
              17.095989
            ],
            [
              120.492781,
              17.091785
            ],
            [
              120.485044,
              17.088288
            ],
            [
              120.476985,
              17.085533
            ],
            [
              120.468682,
              17.083546
            ],
            [
              120.460216,
              17.082346
            ],
            [
              120.451667,
              17.081945
            ],
            [
              120.443118,
              17.082346
            ],
            [
              120.434652,
              17.083546
            ],
            [
              120.426349,
              17.085533
            ],
            [
              120.41829,
              17.088288
            ],
            [
              120.410553,
              17.091785
            ],
            [
              120.403211,
              17.095989
            ],
            [
              120.396336,
              17.10086
            ],
            [
              120.389994,
              17.106352
            ],
            [
              120.384246,
              17.112412
            ],
            [
              120.379148,
              17.11898
            ],
            [
              120.374747,
              17.125995
            ],
            [
              120.371088,
              17.133388
            ],
            [
              120.368204,
              17.141088
            ],
            [
              120.366125,
              17.14902
            ],
            [
              120.364869,
              17.15711
            ],
            [
              120.364449,
              17.165278
            ],
            [
              120.364869,
              17.173446
            ],
            [
              120.366125,
              17.181536
            ],
            [
              120.368204,
              17.189468
            ],
            [
              120.371088,
              17.197168
            ],
            [
              120.374747,
              17.204561
            ],
            [
              120.379148,
              17.211576
            ],
            [
              120.384246,
              17.218144
            ],
            [
              120.389994,
              17.224204
            ],
            [
              120.396336,
              17.229696
            ],
            [
              120.403211,
              17.234567
            ],
            [
              120.410553,
              17.238771
            ],
            [
              120.41829,
              17.242268
            ],
            [
              120.426349,
              17.245023
            ],
            [
              120.434652,
              17.24701
            ],
            [
              120.443118,
              17.24821
            ],
            [
              120.451667,
              17.248611
            ]
          ]
        ]
      }
    },
    {
      "type": "Feature",
      "properties": {
        "id": "RP-T25",
        "name": "RP-T25",
        "type": "Training Area",
        "upper": "3000 FT ALT / SFC",
        "upperFL": 30,
        "lowerFL": 0,
        "remarks": "VFR Training Area. Active HJ Daily. Exclusively for light aircraft with speed of 150 MPH (130 KTS) or less.",
        "shape": "circle",
        "radius_nm": 5,
        "fullName": "STA MARIA"
      },
      "geometry": {
        "type": "Polygon",
        "coordinates": [
          [
            [
              120.483611,
              17.471389
            ],
            [
              120.49217,
              17.470988
            ],
            [
              120.500647,
              17.469788
            ],
            [
              120.50896,
              17.467801
            ],
            [
              120.517028,
              17.465046
            ],
            [
              120.524775,
              17.461549
            ],
            [
              120.532126,
              17.457345
            ],
            [
              120.539009,
              17.452474
            ],
            [
              120.545358,
              17.446982
            ],
            [
              120.551113,
              17.440922
            ],
            [
              120.556218,
              17.434354
            ],
            [
              120.560624,
              17.427339
            ],
            [
              120.564288,
              17.419946
            ],
            [
              120.567175,
              17.412246
            ],
            [
              120.569257,
              17.404314
            ],
            [
              120.570514,
              17.396224
            ],
            [
              120.570935,
              17.388056
            ],
            [
              120.570514,
              17.379888
            ],
            [
              120.569257,
              17.371798
            ],
            [
              120.567175,
              17.363866
            ],
            [
              120.564288,
              17.356166
            ],
            [
              120.560624,
              17.348773
            ],
            [
              120.556218,
              17.341758
            ],
            [
              120.551113,
              17.33519
            ],
            [
              120.545358,
              17.32913
            ],
            [
              120.539009,
              17.323638
            ],
            [
              120.532126,
              17.318767
            ],
            [
              120.524775,
              17.314563
            ],
            [
              120.517028,
              17.311066
            ],
            [
              120.50896,
              17.308311
            ],
            [
              120.500647,
              17.306324
            ],
            [
              120.49217,
              17.305124
            ],
            [
              120.483611,
              17.304723
            ],
            [
              120.475052,
              17.305124
            ],
            [
              120.466575,
              17.306324
            ],
            [
              120.458262,
              17.308311
            ],
            [
              120.450194,
              17.311066
            ],
            [
              120.442447,
              17.314563
            ],
            [
              120.435096,
              17.318767
            ],
            [
              120.428213,
              17.323638
            ],
            [
              120.421864,
              17.32913
            ],
            [
              120.416109,
              17.33519
            ],
            [
              120.411004,
              17.341758
            ],
            [
              120.406598,
              17.348773
            ],
            [
              120.402934,
              17.356166
            ],
            [
              120.400047,
              17.363866
            ],
            [
              120.397965,
              17.371798
            ],
            [
              120.396708,
              17.379888
            ],
            [
              120.396287,
              17.388056
            ],
            [
              120.396708,
              17.396224
            ],
            [
              120.397965,
              17.404314
            ],
            [
              120.400047,
              17.412246
            ],
            [
              120.402934,
              17.419946
            ],
            [
              120.406598,
              17.427339
            ],
            [
              120.411004,
              17.434354
            ],
            [
              120.416109,
              17.440922
            ],
            [
              120.421864,
              17.446982
            ],
            [
              120.428213,
              17.452474
            ],
            [
              120.435096,
              17.457345
            ],
            [
              120.442447,
              17.461549
            ],
            [
              120.450194,
              17.465046
            ],
            [
              120.458262,
              17.467801
            ],
            [
              120.466575,
              17.469788
            ],
            [
              120.475052,
              17.470988
            ],
            [
              120.483611,
              17.471389
            ]
          ]
        ]
      }
    },
    {
      "type": "Feature",
      "properties": {
        "id": "RP-T26",
        "name": "RP-T26",
        "type": "Training Area",
        "upper": "3000 FT ALT / SFC",
        "upperFL": 30,
        "lowerFL": 0,
        "remarks": "VFR Training Area. Active HJ Daily. Exclusively for light aircraft with speed of 150 MPH (130 KTS) or less.",
        "shape": "circle",
        "radius_nm": 5,
        "fullName": "SABLAYAN"
      },
      "geometry": {
        "type": "Polygon",
        "coordinates": [
          [
            [
              120.771944,
              13.027777
            ],
            [
              120.780325,
              13.027376
            ],
            [
              120.788625,
              13.026176
            ],
            [
              120.796765,
              13.024189
            ],
            [
              120.804666,
              13.021434
            ],
            [
              120.812251,
              13.017937
            ],
            [
              120.819449,
              13.013733
            ],
            [
              120.826189,
              13.008862
            ],
            [
              120.832406,
              13.00337
            ],
            [
              120.838041,
              12.99731
            ],
            [
              120.84304,
              12.990742
            ],
            [
              120.847354,
              12.983727
            ],
            [
              120.850941,
              12.976334
            ],
            [
              120.853768,
              12.968634
            ],
            [
              120.855807,
              12.960702
            ],
            [
              120.857039,
              12.952612
            ],
            [
              120.85745,
              12.944444
            ],
            [
              120.857039,
              12.936276
            ],
            [
              120.855807,
              12.928186
            ],
            [
              120.853768,
              12.920254
            ],
            [
              120.850941,
              12.912554
            ],
            [
              120.847354,
              12.905161
            ],
            [
              120.84304,
              12.898146
            ],
            [
              120.838041,
              12.891578
            ],
            [
              120.832406,
              12.885518
            ],
            [
              120.826189,
              12.880026
            ],
            [
              120.819449,
              12.875155
            ],
            [
              120.812251,
              12.870951
            ],
            [
              120.804666,
              12.867454
            ],
            [
              120.796765,
              12.864699
            ],
            [
              120.788625,
              12.862712
            ],
            [
              120.780325,
              12.861512
            ],
            [
              120.771944,
              12.861111
            ],
            [
              120.763563,
              12.861512
            ],
            [
              120.755263,
              12.862712
            ],
            [
              120.747123,
              12.864699
            ],
            [
              120.739222,
              12.867454
            ],
            [
              120.731637,
              12.870951
            ],
            [
              120.724439,
              12.875155
            ],
            [
              120.717699,
              12.880026
            ],
            [
              120.711482,
              12.885518
            ],
            [
              120.705847,
              12.891578
            ],
            [
              120.700848,
              12.898146
            ],
            [
              120.696534,
              12.905161
            ],
            [
              120.692947,
              12.912554
            ],
            [
              120.69012,
              12.920254
            ],
            [
              120.688081,
              12.928186
            ],
            [
              120.686849,
              12.936276
            ],
            [
              120.686438,
              12.944444
            ],
            [
              120.686849,
              12.952612
            ],
            [
              120.688081,
              12.960702
            ],
            [
              120.69012,
              12.968634
            ],
            [
              120.692947,
              12.976334
            ],
            [
              120.696534,
              12.983727
            ],
            [
              120.700848,
              12.990742
            ],
            [
              120.705847,
              12.99731
            ],
            [
              120.711482,
              13.00337
            ],
            [
              120.717699,
              13.008862
            ],
            [
              120.724439,
              13.013733
            ],
            [
              120.731637,
              13.017937
            ],
            [
              120.739222,
              13.021434
            ],
            [
              120.747123,
              13.024189
            ],
            [
              120.755263,
              13.026176
            ],
            [
              120.763563,
              13.027376
            ],
            [
              120.771944,
              13.027777
            ]
          ]
        ]
      }
    },
    {
      "type": "Feature",
      "properties": {
        "id": "RP-T27",
        "name": "RP-T27",
        "type": "Training Area",
        "upper": "3000 FT ALT / SFC",
        "upperFL": 30,
        "lowerFL": 0,
        "remarks": "VFR Training Area. Active HJ Daily. Exclusively for light aircraft with speed of 150 MPH (130 KTS) or less.",
        "shape": "circle",
        "radius_nm": 5,
        "fullName": "TABANGO"
      },
      "geometry": {
        "type": "Polygon",
        "coordinates": [
          [
            [
              124.366667,
              11.386389
            ],
            [
              124.374997,
              11.385988
            ],
            [
              124.383246,
              11.384788
            ],
            [
              124.391336,
              11.382801
            ],
            [
              124.399188,
              11.380046
            ],
            [
              124.406727,
              11.376549
            ],
            [
              124.41388,
              11.372345
            ],
            [
              124.420579,
              11.367474
            ],
            [
              124.426758,
              11.361982
            ],
            [
              124.432359,
              11.355922
            ],
            [
              124.437327,
              11.349354
            ],
            [
              124.441614,
              11.342339
            ],
            [
              124.44518,
              11.334946
            ],
            [
              124.447989,
              11.327246
            ],
            [
              124.450016,
              11.319314
            ],
            [
              124.451239,
              11.311224
            ],
            [
              124.451649,
              11.303056
            ],
            [
              124.451239,
              11.294888
            ],
            [
              124.450016,
              11.286798
            ],
            [
              124.447989,
              11.278866
            ],
            [
              124.44518,
              11.271166
            ],
            [
              124.441614,
              11.263773
            ],
            [
              124.437327,
              11.256758
            ],
            [
              124.432359,
              11.25019
            ],
            [
              124.426758,
              11.24413
            ],
            [
              124.420579,
              11.238638
            ],
            [
              124.41388,
              11.233767
            ],
            [
              124.406727,
              11.229563
            ],
            [
              124.399188,
              11.226066
            ],
            [
              124.391336,
              11.223311
            ],
            [
              124.383246,
              11.221324
            ],
            [
              124.374997,
              11.220124
            ],
            [
              124.366667,
              11.219723
            ],
            [
              124.358337,
              11.220124
            ],
            [
              124.350088,
              11.221324
            ],
            [
              124.341998,
              11.223311
            ],
            [
              124.334146,
              11.226066
            ],
            [
              124.326607,
              11.229563
            ],
            [
              124.319454,
              11.233767
            ],
            [
              124.312755,
              11.238638
            ],
            [
              124.306576,
              11.24413
            ],
            [
              124.300975,
              11.25019
            ],
            [
              124.296007,
              11.256758
            ],
            [
              124.29172,
              11.263773
            ],
            [
              124.288154,
              11.271166
            ],
            [
              124.285345,
              11.278866
            ],
            [
              124.283318,
              11.286798
            ],
            [
              124.282095,
              11.294888
            ],
            [
              124.281685,
              11.303056
            ],
            [
              124.282095,
              11.311224
            ],
            [
              124.283318,
              11.319314
            ],
            [
              124.285345,
              11.327246
            ],
            [
              124.288154,
              11.334946
            ],
            [
              124.29172,
              11.342339
            ],
            [
              124.296007,
              11.349354
            ],
            [
              124.300975,
              11.355922
            ],
            [
              124.306576,
              11.361982
            ],
            [
              124.312755,
              11.367474
            ],
            [
              124.319454,
              11.372345
            ],
            [
              124.326607,
              11.376549
            ],
            [
              124.334146,
              11.380046
            ],
            [
              124.341998,
              11.382801
            ],
            [
              124.350088,
              11.384788
            ],
            [
              124.358337,
              11.385988
            ],
            [
              124.366667,
              11.386389
            ]
          ]
        ]
      }
    },
    {
      "type": "Feature",
      "properties": {
        "id": "RP-T28",
        "name": "RP-T28",
        "type": "Training Area",
        "upper": "3000 FT ALT / SFC",
        "upperFL": 30,
        "lowerFL": 0,
        "remarks": "VFR Training Area. Active HJ Daily. Exclusively for light aircraft with speed of 150 MPH (130 KTS) or less.",
        "shape": "circle",
        "radius_nm": 5,
        "fullName": "EAST SIQUIJOR"
      },
      "geometry": {
        "type": "Polygon",
        "coordinates": [
          [
            [
              123.660278,
              9.262777
            ],
            [
              123.668552,
              9.262376
            ],
            [
              123.676746,
              9.261176
            ],
            [
              123.684782,
              9.259189
            ],
            [
              123.692582,
              9.256434
            ],
            [
              123.700071,
              9.252937
            ],
            [
              123.707176,
              9.248733
            ],
            [
              123.71383,
              9.243862
            ],
            [
              123.719968,
              9.23837
            ],
            [
              123.725531,
              9.23231
            ],
            [
              123.730466,
              9.225742
            ],
            [
              123.734725,
              9.218727
            ],
            [
              123.738267,
              9.211334
            ],
            [
              123.741058,
              9.203634
            ],
            [
              123.74307,
              9.195702
            ],
            [
              123.744286,
              9.187612
            ],
            [
              123.744692,
              9.179444
            ],
            [
              123.744286,
              9.171276
            ],
            [
              123.74307,
              9.163186
            ],
            [
              123.741058,
              9.155254
            ],
            [
              123.738267,
              9.147554
            ],
            [
              123.734725,
              9.140161
            ],
            [
              123.730466,
              9.133146
            ],
            [
              123.725531,
              9.126578
            ],
            [
              123.719968,
              9.120518
            ],
            [
              123.71383,
              9.115026
            ],
            [
              123.707176,
              9.110155
            ],
            [
              123.700071,
              9.105951
            ],
            [
              123.692582,
              9.102454
            ],
            [
              123.684782,
              9.099699
            ],
            [
              123.676746,
              9.097712
            ],
            [
              123.668552,
              9.096512
            ],
            [
              123.660278,
              9.096111
            ],
            [
              123.652004,
              9.096512
            ],
            [
              123.64381,
              9.097712
            ],
            [
              123.635774,
              9.099699
            ],
            [
              123.627974,
              9.102454
            ],
            [
              123.620485,
              9.105951
            ],
            [
              123.61338,
              9.110155
            ],
            [
              123.606726,
              9.115026
            ],
            [
              123.600588,
              9.120518
            ],
            [
              123.595025,
              9.126578
            ],
            [
              123.59009,
              9.133146
            ],
            [
              123.585831,
              9.140161
            ],
            [
              123.582289,
              9.147554
            ],
            [
              123.579498,
              9.155254
            ],
            [
              123.577486,
              9.163186
            ],
            [
              123.57627,
              9.171276
            ],
            [
              123.575864,
              9.179444
            ],
            [
              123.57627,
              9.187612
            ],
            [
              123.577486,
              9.195702
            ],
            [
              123.579498,
              9.203634
            ],
            [
              123.582289,
              9.211334
            ],
            [
              123.585831,
              9.218727
            ],
            [
              123.59009,
              9.225742
            ],
            [
              123.595025,
              9.23231
            ],
            [
              123.600588,
              9.23837
            ],
            [
              123.606726,
              9.243862
            ],
            [
              123.61338,
              9.248733
            ],
            [
              123.620485,
              9.252937
            ],
            [
              123.627974,
              9.256434
            ],
            [
              123.635774,
              9.259189
            ],
            [
              123.64381,
              9.261176
            ],
            [
              123.652004,
              9.262376
            ],
            [
              123.660278,
              9.262777
            ]
          ]
        ]
      }
    }
  ]
}
